Town_Neighborhood,District,State,Latitude,Longitude,Number_of_Residents,Venue_ID,Venue_Name,Venue_Lat,Venue_Lon,Venue_Distance,Venue_Cat_ID,Venue_Category
TAMAN DAHLIA,PULAI,JOHOR,1.5116441009091304,103.69369141027279,2743,4ce212dfaba88cfa803a59d7,Medan Selera Cempaka,1.5151803829853487,103.69822610796776,640,4bf58dd8d48988d142941735,Asian Restaurant
TAMAN DAHLIA,PULAI,JOHOR,1.5116441009091304,103.69369141027279,2743,515672d3e4b0008681f758d1,Mr. Noh Otak-otak JB,1.5129927710722892,103.68574761194542,896,4bf58dd8d48988d142941735,Asian Restaurant
TAMAN DAHLIA,PULAI,JOHOR,1.5116441009091304,103.69369141027279,2743,51392c9de4b0bcfbb07d9f05,MCC Makan Sutra,1.519065628946709,103.69105958233452,876,4bf58dd8d48988d142941735,Asian Restaurant
TAMAN DAMAI JAYA,GELANG PATAH,JOHOR,1.5063505716190877,103.65133763957151,4668,4ffaad74e4b0956dd691e74e,順記鹵鴨飯粿條仔,1.513125,103.656749,965,4bf58dd8d48988d142941735,Asian Restaurant
TAMAN DAMAI JAYA,GELANG PATAH,JOHOR,1.5063505716190877,103.65133763957151,4668,53d620e7498e68b7712ae837,777Restoran海鲜美食中心,1.509594284967101,103.65050040528902,372,4bf58dd8d48988d142941735,Asian Restaurant
TAMAN DAMAI JAYA,GELANG PATAH,JOHOR,1.5063505716190877,103.65133763957151,4668,4f8d7ca7e4b037ca848e28b6,Khai Tomyam,1.499142,103.647364,916,4bf58dd8d48988d142941735,Asian Restaurant
TAMAN PUTRI,KULAI,JOHOR,1.6596886792500312,103.58370396621879,2295,5532258d498ed8c8eb46a0ae,Along Bistro,1.6561472761526674,103.5875602714974,582,4bf58dd8d48988d142941735,Asian Restaurant
TAMAN PUTRI,KULAI,JOHOR,1.6596886792500312,103.58370396621879,2295,4cdd6529cea2224b63ea904c,Nanzeela Restoran,1.6557777627576644,103.58863452755541,700,4bf58dd8d48988d142941735,Asian Restaurant
PENYIARAN,GELANG PATAH,JOHOR,1.5351354237143189,103.61673483625007,2550,5046b0a6e4b0ecd27ad09f2c,Warung Pak Mansor,1.5403430335569277,103.61599989367711,585,4bf58dd8d48988d142941735,Asian Restaurant
FLAT PERKASA 'B' TUTA,GELANG PATAH,JOHOR,1.50830680172731,103.65526739868187,3553,4d3d5f3d84d46ea898b4055d,Restoran You Kee 有记XO烧腊之家,1.5165829386062333,103.65394273777528,933,4bf58dd8d48988d142941735,Asian Restaurant
FLAT PERKASA 'B' TUTA,GELANG PATAH,JOHOR,1.50830680172731,103.65526739868187,3553,52f8cc21498ee5ec893e35f2,Tampoi Laksa Shangrila 香格里拉,1.5166725579986688,103.65390803238633,943,4bf58dd8d48988d142941735,Asian Restaurant
KAMPONG RAHMAT,KULAI,JOHOR,1.6797227231973977,103.51966212073691,1869,5749aaec498e3b6d11d3a202,Restoran Daun Pisang,1.679014,103.525439,647,4bf58dd8d48988d142941735,Asian Restaurant
LARKIN,JOHOR BAHRU,JOHOR,1.4951946200175708,103.7448062574562,3058,4d14532f6d103704548420bd,KSZ Restaurant,1.494867842170058,103.7535522214425,973,4bf58dd8d48988d142941735,Asian Restaurant
NIBONG DAYA,TEBRAU,JOHOR,1.5619077473333702,103.7542365209584,1690,54c1001e498e3427268eb9dd,Celoreng Houze,1.5551964218496581,103.75644689627757,786,4bf58dd8d48988d142941735,Asian Restaurant
NIBONG DAYA,TEBRAU,JOHOR,1.5619077473333702,103.7542365209584,1690,5530535d498ea799c624a5ca,Restoran Azmi & Umi,1.5551789549886252,103.75525913657724,757,4bf58dd8d48988d142941735,Asian Restaurant
TAMAN MAJEDEE,JOHOR BAHRU,JOHOR,1.4980341659286005,103.75671405985723,2827,4cc94637d338236a877ba17c,Yong Tahu Aris,1.5040785862450667,103.7501472893261,993,4bf58dd8d48988d142941735,Asian Restaurant
TAMAN MAJEDEE,JOHOR BAHRU,JOHOR,1.4980341659286005,103.75671405985723,2827,4c2205bf7e85c928014abb21,Sinar Kurnia,1.4990416964860689,103.75847007085846,225,4bf58dd8d48988d142941735,Asian Restaurant
TAMAN MAJEDEE,JOHOR BAHRU,JOHOR,1.4980341659286005,103.75671405985723,2827,4ddb3dde2271ac90476f79df,warung kak leha,1.4941494402231383,103.76399004930313,917,4bf58dd8d48988d142941735,Asian Restaurant
TAMAN MAJEDEE,JOHOR BAHRU,JOHOR,1.4980341659286005,103.75671405985723,2827,4ca6133f44a8224b31afff3f,Mummy R,1.5052483521011322,103.76132436594662,952,4bf58dd8d48988d142941735,Asian Restaurant
TAMAN MAJEDEE,JOHOR BAHRU,JOHOR,1.4980341659286005,103.75671405985723,2827,53c9016c498e31473d0e7116,Restoran Zaharah Idaman,1.499889113708386,103.74865262587649,920,4bf58dd8d48988d142941735,Asian Restaurant
MASAI,PASIR GUDANG,JOHOR,1.4960158672031592,103.88769610832821,3887,4d3d7bd0557d6dcb06d84444,Restoran Thoyiib Tom Yam & Sea Food,1.5022858680118865,103.8855573820724,737,4bf58dd8d48988d142941735,Asian Restaurant
TAMPOI INDAH,PULAI,JOHOR,1.5111322473684448,103.68253703010531,1857,4e60d085d22d509a38e47f7d,老夫子活海鮮外面,1.5100733346349398,103.68169542104538,150,4bf58dd8d48988d142941735,Asian Restaurant
TAMPOI INDAH,PULAI,JOHOR,1.5111322473684448,103.68253703010531,1857,4d330cfa329e5481302cb61d,Restoran Anggun,1.5038747322633383,103.68587421835659,889,4bf58dd8d48988d142941735,Asian Restaurant
ARA CEMERLANG,TEBRAU,JOHOR,1.5653947814737132,103.80903837536846,1515,4fdad8d4e4b049d373083ee6,Awana Asian Kitchen,1.5613075045125762,103.80745608410689,487,4bf58dd8d48988d142941735,Asian Restaurant
ARA CEMERLANG,TEBRAU,JOHOR,1.5653947814737132,103.80903837536846,1515,4cf5848bd3a8a1cd4917cc43,列光茶室,1.5656729013359258,103.8142586162224,581,4bf58dd8d48988d142941735,Asian Restaurant
ARA CEMERLANG,TEBRAU,JOHOR,1.5653947814737132,103.80903837536846,1515,4d1d8296756e8cfad1245054,Indonesian Corner Fast Food,1.56174940920174,103.80693511822923,468,4bf58dd8d48988d142941735,Asian Restaurant
ARA CEMERLANG,TEBRAU,JOHOR,1.5653947814737132,103.80903837536846,1515,4d19bbf881cea35de51ef7ec,富山美食中心,1.5606070342792686,103.80766556936264,554,4bf58dd8d48988d142941735,Asian Restaurant
ARA CEMERLANG,TEBRAU,JOHOR,1.5653947814737132,103.80903837536846,1515,5489034b498e796e10d70949,99兴美食阁,1.5603192128128882,103.80927780821236,565,4bf58dd8d48988d142941735,Asian Restaurant
KAMPONG PASIR,PULAI,JOHOR,1.495703303102596,103.69384194356415,3277,4cbabe0343ec6dcba279a631,Din Yong Taufu,1.4924864560755453,103.7010623984614,879,4bf58dd8d48988d142941735,Asian Restaurant
BANDAR SENAI SELATAN,KULAI,JOHOR,1.6019049995333663,103.64102016666672,2031,51443baee4b0da66d5e5da22,Restoran H&P,1.5959546023698818,103.64565374084542,839,4bf58dd8d48988d142941735,Asian Restaurant
BANDAR KULAI TENGAH,KULAI,JOHOR,1.6576188401538725,103.60240703623079,2039,4f7057f3e4b08610792b34d1,Guoma 锅妈台式火锅,1.6619708708120289,103.60164965559576,491,4bf58dd8d48988d142941735,Asian Restaurant
BANDAR KULAI TIMOR,KULAI,JOHOR,1.653115071000039,103.6055662343182,2160,4cfe0be2d7206ea877344c69,Warung Nasi Lemak Wak Kentut,1.6520225354519738,103.61017715340724,527,4bf58dd8d48988d142941735,Asian Restaurant
BANDAR KULAI TIMOR,KULAI,JOHOR,1.653115071000039,103.6055662343182,2160,50d6e11fe4b0bc5a5c071c75,海外天海鲜饭店,1.6495404016685462,103.61108859971766,732,4bf58dd8d48988d142941735,Asian Restaurant
BANDAR KULAI TIMOR,KULAI,JOHOR,1.653115071000039,103.6055662343182,2160,51583f9ae4b0f0f5aeffac49,Nasi Lemak Kukus Ayam Berempab Ayahanda Bonda,1.651884897809842,103.59891021240543,753,4bf58dd8d48988d142941735,Asian Restaurant
BANDAR KULAI TIMOR,KULAI,JOHOR,1.653115071000039,103.6055662343182,2160,57e9dec7498e9744694d0d9e,isnur catering,1.650262,103.598745,822,4bf58dd8d48988d142941735,Asian Restaurant
PEKAN SENGKANG,KULAI,JOHOR,1.6872865460000366,103.56834485908007,1300,509ca01ce4b01b9e4891812d,Nyonya Shiok Restaurant,1.6828709840774536,103.57282257080078,699,4bf58dd8d48988d142941735,Asian Restaurant
KAMPONG WADI HANA,JOHOR BAHRU,JOHOR,1.4747474969615717,103.7579789266539,2211,4d0185d794c5b1f7fc6a52de,Warong Teh Sarbat Asli,1.4711521320817835,103.75613947652764,449,4bf58dd8d48988d142941735,Asian Restaurant
KAMPONG WADI HANA,JOHOR BAHRU,JOHOR,1.4747474969615717,103.7579789266539,2211,4f028f2c2c5b66f33ec92134,Bawah Jambatan Wadi Hana,1.4733199743217142,103.76146576945816,419,4bf58dd8d48988d142941735,Asian Restaurant
KAMPONG WADI HANA,JOHOR BAHRU,JOHOR,1.4747474969615717,103.7579789266539,2211,5409ea42498e0b95e1389c0e,Nasi Lemak Simple,1.4779983621944888,103.762831176915,650,4bf58dd8d48988d142941735,Asian Restaurant
NGEE HENG,PULAI,JOHOR,1.4701733776500303,103.75498753965005,1370,5172af12e4b0158bdc2b5617,Chicken Chop Meletop Kebaboom,1.4675401060217677,103.7516778646454,470,4bf58dd8d48988d142941735,Asian Restaurant
RUMAH PANGSA LARKIN,JOHOR BAHRU,JOHOR,1.5009615979655442,103.74606362062076,3304,51dd105a498e3ea0d35a2038,Bazar Ramadhan Pasar Awam Larkin,1.4956441347609102,103.7441422304678,629,4bf58dd8d48988d142941735,Asian Restaurant
RUMAH PANGSA LARKIN,JOHOR BAHRU,JOHOR,1.5009615979655442,103.74606362062076,3304,500566ffe4b0cc16395232da,yong tauhu mat aris,1.508268117904663,103.74845886230469,855,4bf58dd8d48988d142941735,Asian Restaurant
KEEMBONG,PASIR GUDANG,JOHOR,1.5442233963000331,103.81355719030005,3918,4f896a8ce4b0e67b850acf32,Restoran Al Mashur,1.5496195650756823,103.81175098448271,633,4bf58dd8d48988d142941735,Asian Restaurant
KEEMBONG,PASIR GUDANG,JOHOR,1.5442233963000331,103.81355719030005,3918,4e15cab0d4c0e3d78b300170,Restoran Teratap EJ,1.5481970817936208,103.8131347517193,444,4bf58dd8d48988d142941735,Asian Restaurant
KEEMBONG,PASIR GUDANG,JOHOR,1.5442233963000331,103.81355719030005,3918,58a99df6febfbd2f71bda2fa,D EJ WARISAN TIMUR,1.547782,103.81291999999999,402,4bf58dd8d48988d142941735,Asian Restaurant
KEEMBONG,PASIR GUDANG,JOHOR,1.5442233963000331,103.81355719030005,3918,4d6dc59530d5b1f755fcbd42,亚方粿条,1.537911,103.810307,790,4bf58dd8d48988d142941735,Asian Restaurant
SRI AMAR,PASIR GUDANG,JOHOR,1.5201459611538677,103.76322157205132,1895,50705123e4b0a09cd554ecfc,Pandan Uptown Food Court,1.5238240989292668,103.76617743951948,525,4bf58dd8d48988d142941735,Asian Restaurant
SRI AMAR,PASIR GUDANG,JOHOR,1.5201459611538677,103.76322157205132,1895,4cd54075dfb4a1cd48df575c,Yong Taufu Awang Kg Melayu,1.5147968385695605,103.75746030587077,874,4bf58dd8d48988d142941735,Asian Restaurant
SRI AMAR,PASIR GUDANG,JOHOR,1.5201459611538677,103.76322157205132,1895,4c9cd99d0e9bb1f7e599d75f,Restoran Osman,1.5249573643083247,103.7638830435939,540,4bf58dd8d48988d142941735,Asian Restaurant
SRI AMAR,PASIR GUDANG,JOHOR,1.5201459611538677,103.76322157205132,1895,509e7ee1e4b09f018524ff5d,d'Serai Corner Pandan Uptown,1.5249244018702517,103.76497940533429,566,4bf58dd8d48988d142941735,Asian Restaurant
SRI AMAR,PASIR GUDANG,JOHOR,1.5201459611538677,103.76322157205132,1895,5117084fe4b0d096af6411a1,Restorant Al-Mahabah,1.52556490957091,103.76300474197373,603,4bf58dd8d48988d142941735,Asian Restaurant
SRI AMAR,PASIR GUDANG,JOHOR,1.5201459611538677,103.76322157205132,1895,4d746c5a9b28224b79ccd50f,Restoran Murni,1.5145618410212731,103.75660001654629,964,4bf58dd8d48988d142941735,Asian Restaurant
JAYA MAS,GELANG PATAH,JOHOR,1.4953810260000309,103.65325757930006,2451,4cde16f741ed224b46f6d63c,Kang Bee Hoong 慷美峰烧腊鸡饭,1.4928497374537246,103.65818613466419,616,4bf58dd8d48988d142941735,Asian Restaurant
NIPAH DELIMA,TEBRAU,JOHOR,1.5443707262308064,103.75482538480772,1475,56403548cd1054a8ffc65e0f,911 Coffeeshop,1.549246713722656,103.75689568669424,589,4bf58dd8d48988d142941735,Asian Restaurant
NIPAH DELIMA,TEBRAU,JOHOR,1.5443707262308064,103.75482538480772,1475,55fe582c498ef4752fcd66e9,Restoran Gan Heong Seafood Noodles颜香魚肉海鲜面,1.5458319999999999,103.763645,994,4bf58dd8d48988d142941735,Asian Restaurant
NIPAH DELIMA,TEBRAU,JOHOR,1.5443707262308064,103.75482538480772,1475,576d29d4498ee478cefca101,卤肉霸王饭,1.5461685045211293,103.76235407130869,861,4bf58dd8d48988d142941735,Asian Restaurant
NIPAH DELIMA,TEBRAU,JOHOR,1.5443707262308064,103.75482538480772,1475,4d7782c19ee9a35d0793b3f8,Restaurant Good Taste Food House 美丰味饮食中心,1.5461905595591523,103.76265830803736,894,4bf58dd8d48988d142941735,Asian Restaurant
PINANG SAGU,TEBRAU,JOHOR,1.5524713783823945,103.76077020750004,2454,4ceddd1313aea14319766a9f,锦成茶楼 Restoran Gim Cheng,1.549358970636554,103.76487640401079,573,4bf58dd8d48988d142941735,Asian Restaurant
PINANG SAGU,TEBRAU,JOHOR,1.5524713783823945,103.76077020750004,2454,4cc684bd38aaa093f4db1e62,Kafe 1 Malaysia,1.546002672332197,103.76440077385712,825,4bf58dd8d48988d142941735,Asian Restaurant
PINANG SAGU,TEBRAU,JOHOR,1.5524713783823945,103.76077020750004,2454,4d05ee830e49721ef495787f,Restoran E&Y,1.5473467830160752,103.76357196982666,650,4bf58dd8d48988d142941735,Asian Restaurant
PINANG SAGU,TEBRAU,JOHOR,1.5524713783823945,103.76077020750004,2454,53410e16498e521f3c87cb03,福林园粿条仔,1.5498474764536456,103.7648436109358,539,4bf58dd8d48988d142941735,Asian Restaurant
PINANG SAGU,TEBRAU,JOHOR,1.5524713783823945,103.76077020750004,2454,535b41f2498e912615f0bce7,笨珍云吞面 Pontian Wantan Noodle,1.5454504166782548,103.76491901889544,907,4bf58dd8d48988d142941735,Asian Restaurant
RUMBIA DAYA,TEBRAU,JOHOR,1.5509624835833669,103.75293844704174,2837,578103a3498e90925d3d862b,Restoran Nasi Padang Meletop,1.5481833560035367,103.74503168854984,932,4bf58dd8d48988d142941735,Asian Restaurant
RUMBIA DAYA,TEBRAU,JOHOR,1.5509624835833669,103.75293844704174,2837,5991381e4940bc65f07f44d0,Restoran Qaseh Bonda,1.54721113958698,103.74581549555911,895,4bf58dd8d48988d142941735,Asian Restaurant
RUMBIA DAYA,TEBRAU,JOHOR,1.5509624835833669,103.75293844704174,2837,518db473498e355499d7dd5d,Restoran Selera Ummi,1.548246,103.744693,966,4bf58dd8d48988d142941735,Asian Restaurant
JALAN TAMPOI,PULAI,JOHOR,1.5164564703200398,103.72018802610009,1361,4d6eeaf8516b8cfa49c44910,Warung Sayang Al Mizan,1.5177300037096302,103.72450179021976,500,4bf58dd8d48988d142941735,Asian Restaurant
LADANG TEBRAU,TEBRAU,JOHOR,1.5573830937681503,103.74189112507251,1063,4d3053827791224bd6f0cf42,Restoran Al-Fayed,1.5651727625823546,103.74060380664407,878,4bf58dd8d48988d142941735,Asian Restaurant
DESA RAHMAT,PULAI,JOHOR,1.5074240899130784,103.7014378507392,2401,4d75c972bd73548113fb0cb3,Asam Pedas Taman Desa Rahmat,1.5009425662911091,103.70762221654064,997,4bf58dd8d48988d142941735,Asian Restaurant
DESA RAHMAT,PULAI,JOHOR,1.5074240899130784,103.7014378507392,2401,4d2e590ad9d8a143c8edf8d7,Nasi Padang Kak Yah,1.5124626387498668,103.70696287068563,832,4bf58dd8d48988d142941735,Asian Restaurant
DESA RAHMAT,PULAI,JOHOR,1.5074240899130784,103.7014378507392,2401,54f51099498ed05b509cc0f3,Kayan Licious,1.5078237010766975,103.71008442200079,963,4bf58dd8d48988d142941735,Asian Restaurant
TAMAN ABAD,JOHOR BAHRU,JOHOR,1.4867153413200336,103.76014665800007,2175,563edc9acd10d28866d2e04e,Eleven Kitchen,1.4877232047647864,103.75514046653588,568,4bf58dd8d48988d142941735,Asian Restaurant
TAMAN ABAD,JOHOR BAHRU,JOHOR,1.4867153413200336,103.76014665800007,2175,588598b6084be507653f914e,Mee Rebus House,1.4894790946276515,103.76206792247896,374,4bf58dd8d48988d142941735,Asian Restaurant
ABAD JAYA 2,JOHOR BAHRU,JOHOR,1.4864706860322894,103.75664096500005,1842,529c1aa111d2f2ca50d91eb0,Restoran Thong Yen 唐人菜馆,1.4904219007201156,103.76307251884884,840,4bf58dd8d48988d142941735,Asian Restaurant
BANDAR SKUDAI TENGAH,GELANG PATAH,JOHOR,1.5378491716666922,103.66129917141672,2233,50ecc24de4b0b31976bfc11b,何明记全旦云吞面,1.5311416979842487,103.66526671429472,867,4bf58dd8d48988d142941735,Asian Restaurant
BUKIT CHAGAR,JOHOR BAHRU,JOHOR,1.4694537718000371,103.76328550050005,2358,5de20e1ebc72980008353138,Kedai Makan Nasi Ayam KEE CHUP,1.4613639999999999,103.76110200000001,932,4bf58dd8d48988d142941735,Asian Restaurant
BUKIT CHAGAR,JOHOR BAHRU,JOHOR,1.4694537718000371,103.76328550050005,2358,4d6ccae0cb0eb1f7b2aea2a0,Restoran Makanan Bawean,1.477848,103.76131,959,4bf58dd8d48988d142941735,Asian Restaurant
BUKIT MEWAH,PULAI,JOHOR,1.5187846440816488,103.68423692571432,3821,537586bf11d20b26da92c1d0,Food Habit 食惯,1.5196691394844388,103.67891764231291,600,4bf58dd8d48988d142941735,Asian Restaurant
LUMBA KUDA,JOHOR BAHRU,JOHOR,1.4669703370697988,103.76644004379074,3069,4d02fc00c2e5370449e6ae67,Kedai Makan Jadi Baru Botak 新自立食館,1.4607572059448328,103.76747037605415,701,4bf58dd8d48988d142941735,Asian Restaurant
KULAI,KULAI,JOHOR,1.6454887748696054,103.60597535763053,4930,51c5a8c2498e40dc94e367c9,Restoran Tomyam Anisah,1.6424114603510218,103.61365612040441,920,4bf58dd8d48988d142941735,Asian Restaurant
KAMPONG PULAI,GELANG PATAH,JOHOR,1.4777956489769482,103.57443837282308,894,517a74c4e4b008b08e593f50,Mee Bandung Banjir,1.4818205516483047,103.57963639240609,731,4bf58dd8d48988d142941735,Asian Restaurant
SRI PULAI,KULAI,JOHOR,1.5519428128906536,103.64959145975004,5133,4dc4a3a8814d1bfbca2b1ff9,Tembaga Tomyam Seafood,1.5456130808595108,103.6557640676378,984,4bf58dd8d48988d142941735,Asian Restaurant
SRI PULAI,KULAI,JOHOR,1.5519428128906536,103.64959145975004,5133,4fa29951e4b0e0605e1e23f2,Warisan Sinar Maju,1.5473297886390367,103.6518734781662,572,4bf58dd8d48988d142941735,Asian Restaurant
SRI PULAI,KULAI,JOHOR,1.5519428128906536,103.64959145975004,5133,54f1c612498e38495b946d86,Klasik @Galleria Kafe,1.54937763609706,103.65209859084702,399,4bf58dd8d48988d142941735,Asian Restaurant
SRI PULAI,KULAI,JOHOR,1.5519428128906536,103.64959145975004,5133,4d2edc214377224bbff41138,Restoran Tomyam Awan,1.544655640150754,103.65487210190172,1001,4bf58dd8d48988d142941735,Asian Restaurant
SRI PULAI,KULAI,JOHOR,1.5519428128906536,103.64959145975004,5133,4efacc6693ad7cf2ed66e807,Cafe Qisadani,1.5533943455955743,103.64089827960177,980,4bf58dd8d48988d142941735,Asian Restaurant
KEBANGSAAN,GELANG PATAH,JOHOR,1.5381065117097117,103.62930303500004,3418,4c5bac8c6147be9a96608d09,Green Jade Republic,1.5410427724107447,103.6310242506602,378,4bf58dd8d48988d142941735,Asian Restaurant
KEBANGSAAN,GELANG PATAH,JOHOR,1.5381065117097117,103.62930303500004,3418,4d147d4f8312236a3fb84aba,Restoran Che Mek,1.5385063494484263,103.63043844974514,133,4bf58dd8d48988d142941735,Asian Restaurant
KEBANGSAAN,GELANG PATAH,JOHOR,1.5381065117097117,103.62930303500004,3418,548c291e498e6a8ec9bc8055,Restoran Asam Pedas & BBQ,1.5461973823568909,103.62826635607156,908,4bf58dd8d48988d142941735,Asian Restaurant
KEBANGSAAN,GELANG PATAH,JOHOR,1.5381065117097117,103.62930303500004,3418,4d7c7f055a396dcb0a6276fb,Cendol Taman Universiti,1.5409675526309106,103.6310352712815,372,4bf58dd8d48988d142941735,Asian Restaurant
KEBANGSAAN,GELANG PATAH,JOHOR,1.5381065117097117,103.62930303500004,3418,4b9a6cf5f964a52042b435e3,Restoran Bibik,1.5457045343259126,103.6277778551532,862,4bf58dd8d48988d142941735,Asian Restaurant
KEBANGSAAN,GELANG PATAH,JOHOR,1.5381065117097117,103.62930303500004,3418,4deb6c16ae60e98923721ca2,Restoran Sudi Mampir,1.5447959900431385,103.62876940911416,747,4bf58dd8d48988d142941735,Asian Restaurant
AYER MOLEK,PULAI,JOHOR,1.4654621670416972,103.7595247002084,1236,4e1e7f4baeb7fe88acddb881,Asam Pedas Dan Ayam Penyet Kak Nor,1.4598283094548434,103.7641255905406,809,4bf58dd8d48988d142941735,Asian Restaurant
GELANG PATAH UTARA,GELANG PATAH,JOHOR,1.4631827298936482,103.58356237682982,5381,52590c8c11d2af3dfb3a2031,Restoran Dapur Merah,1.4604580803184526,103.58370872865991,303,4bf58dd8d48988d142941735,Asian Restaurant
GELANG PATAH UTARA,GELANG PATAH,JOHOR,1.4631827298936482,103.58356237682982,5381,5a741dbd840fc22ccf8f9fd6,Talip's Chicken Rice Restaurant,1.4717350033306047,103.5840814234561,953,4bf58dd8d48988d142941735,Asian Restaurant
GELANG PATAH UTARA,GELANG PATAH,JOHOR,1.4631827298936482,103.58356237682982,5381,4f33cea5e4b0b5f6deea6f43,Roslee Tomyam Seafood,1.4574766014247384,103.58168694549698,668,4bf58dd8d48988d142941735,Asian Restaurant
GELANG PATAH UTARA,GELANG PATAH,JOHOR,1.4631827298936482,103.58356237682982,5381,57872f06498e8b6578921a71,DC Café - Nasi Ayam Station,1.4707582000000001,103.584885,856,4bf58dd8d48988d142941735,Asian Restaurant
GELANG PATAH SELATAN,GELANG PATAH,JOHOR,1.4236702073750302,103.5836600723226,1881,4f726440e4b06c4afd683b19,8888餐馆,1.4288341999999998,103.58809000000001,757,4bf58dd8d48988d142941735,Asian Restaurant
BANDAR ULU CHOH,KULAI,JOHOR,1.5283987636389211,103.54479512830565,1441,4fc1a542e4b0a363d42b20a6,烏魯槽再發咖啡店,1.528835,103.544297,73,4bf58dd8d48988d142941735,Asian Restaurant
BANDAR ULU CHOH,KULAI,JOHOR,1.5283987636389211,103.54479512830565,1441,564dd164498e7c441e8cba41,Kedai Makan En.Hamzah,1.5236103846835656,103.54401612989204,540,4bf58dd8d48988d142941735,Asian Restaurant
TANJONG ADANG,GELANG PATAH,JOHOR,1.3584867991215128,103.5653267097197,1477,4e9e5e5630f8fb6775ea6c1a,Warung Pak Raja,1.353126621998424,103.56785768001585,659,4bf58dd8d48988d142941735,Asian Restaurant
TIRAM DUKU,GELANG PATAH,JOHOR,1.3882125612198115,103.56258960326376,996,5329280c498e6081cccee7dc,Warong Mee Udang Tiram Duku,1.384026288986206,103.57000732421876,947,4bf58dd8d48988d142941735,Asian Restaurant
KEMULIAAN,GELANG PATAH,JOHOR,1.5287222044516495,103.62273869148392,3727,4cae624575ebb60cd622b4ad,Restoran Najmah,1.5269318139679926,103.63149194935936,994,4bf58dd8d48988d142941735,Asian Restaurant
LEMBAH KEMPAS,PULAI,JOHOR,1.5287676678750333,103.71172800968758,2889,4e0714c5a809495e6196a964,Restoran Sahabat,1.534142377634116,103.7162476961785,781,4bf58dd8d48988d142941735,Asian Restaurant
LEMBAH KEMPAS,PULAI,JOHOR,1.5287676678750333,103.71172800968758,2889,5409cb41498eb9f6be2614d4,Restoran Sayam Corner,1.534075,103.716362,784,4bf58dd8d48988d142941735,Asian Restaurant
LEMBAH KEMPAS,PULAI,JOHOR,1.5287676678750333,103.71172800968758,2889,53d7b086498eb348d507e8a8,Restaurant sayam corner,1.5342141029930938,103.71619280684031,783,4bf58dd8d48988d142941735,Asian Restaurant
LEMBAH KEMPAS,PULAI,JOHOR,1.5287676678750333,103.71172800968758,2889,4f0ebb2be4b0354498b9248f,Warong 60an,1.5316198598476072,103.71864189523072,832,4bf58dd8d48988d142941735,Asian Restaurant
LEMBAH KEMPAS,PULAI,JOHOR,1.5287676678750333,103.71172800968758,2889,54afea78498ef9f6d514a11a,Restoran 5 star homebase Pak lah,1.5368035066386194,103.7095075334478,928,4bf58dd8d48988d142941735,Asian Restaurant
LEMBAH KEMPAS,PULAI,JOHOR,1.5287676678750333,103.71172800968758,2889,523a66e5498e44c82f1cdef5,Warung Samcit,1.536812286533898,103.70950187769004,929,4bf58dd8d48988d142941735,Asian Restaurant
PERMATANG,PULAI,JOHOR,1.5326119109231162,103.72342664930777,1304,52b0ee12498e0d1051f42152,Hidangan Makanan Tradisional,1.5335219999999998,103.71543199999999,895,4bf58dd8d48988d142941735,Asian Restaurant
LAKSAMANA TUTA,GELANG PATAH,JOHOR,1.5243148734138148,103.67072226658622,3984,4cde0aff3644a09342db499f,郭记 驰名凤爪面 （皇后花园）,1.5237984799282345,103.66791142752744,318,4bf58dd8d48988d142941735,Asian Restaurant
LAKSAMANA TUTA,GELANG PATAH,JOHOR,1.5243148734138148,103.67072226658622,3984,4cf8acc0de096dcb13c58979,Ah Hong Kopitiam,1.5159418570384278,103.66884211111406,955,4bf58dd8d48988d142941735,Asian Restaurant
LAKSAMANA TUTA,GELANG PATAH,JOHOR,1.5243148734138148,103.67072226658622,3984,4d50de2d747f6dcbf5a5bad4,EverGreen 绿园,1.5174040529037809,103.67103110751793,770,4bf58dd8d48988d142941735,Asian Restaurant
TEBING RUNTOH,GELANG PATAH,JOHOR,1.4270035005070143,103.65884769220284,208,4ec369cd4901dfe99bb72a2b,Rossco Cafe,1.4215232980150676,103.65440874005455,784,4bf58dd8d48988d142941735,Asian Restaurant
NAKHODA TUTA,GELANG PATAH,JOHOR,1.5169394391064122,103.67070488372349,4601,4d0dc6df5c46a093b27c10b4,合记laksa@fish soup,1.515407,103.668666,283,4bf58dd8d48988d142941735,Asian Restaurant
TERATAI,PASIR GUDANG,JOHOR,1.5603007036316108,103.61995987021056,2006,4f710e7be4b0f11af96d921f,Banana Cafe,1.5613398920118484,103.61497619048934,566,4bf58dd8d48988d142941735,Asian Restaurant
TERATAI,PASIR GUDANG,JOHOR,1.5603007036316108,103.61995987021056,2006,501ab671e4b01fa1fd34497e,Sana Curry House,1.5625186537785514,103.61321953681343,789,4bf58dd8d48988d142941735,Asian Restaurant
TERATAI,PASIR GUDANG,JOHOR,1.5603007036316108,103.61995987021056,2006,4e009127ae609fa8eddf9893,Restoran DS Cafe,1.5629924805484332,103.61902498528906,317,4bf58dd8d48988d142941735,Asian Restaurant
TERATAI,PASIR GUDANG,JOHOR,1.5603007036316108,103.61995987021056,2006,4d6500096d9437044f4271bf,Restoran Ma'idah,1.562253629118591,103.61470540317828,623,4bf58dd8d48988d142941735,Asian Restaurant
KAMPONG BAHRU,PULAI,JOHOR,1.4708943921731157,103.74336758417313,1149,4bffc807369476b094448e1f,Anna's Kitchen,1.4659744242338681,103.74375133863929,549,4bf58dd8d48988d142941735,Asian Restaurant
LIMA KEDAI,GELANG PATAH,JOHOR,1.5104757022833668,103.62981039194172,5021,549572df498e138e70c092da,Restoran Albab Yamani,1.5141873809924338,103.63170346806366,463,4bf58dd8d48988d142941735,Asian Restaurant
LIMA KEDAI,GELANG PATAH,JOHOR,1.5104757022833668,103.62981039194172,5021,55169d90498ea99fe4b2b95f,Nam Huat Heng 南发兴美食中心,1.5156815999134052,103.63187322515512,623,4bf58dd8d48988d142941735,Asian Restaurant
BUKIT SERENE,PULAI,JOHOR,1.4794000739756397,103.72946149831706,1577,4d5d0528775f8cfa9fa8bce0,Asiana Penang & Western Cuisine,1.4734699306393524,103.72391977841362,903,4bf58dd8d48988d142941735,Asian Restaurant
SKUDAI KIRI,PULAI,JOHOR,1.484477308633824,103.71207044223948,2549,4bedfd2c946c0f47854ea363,Soto Perdana,1.4884925909169393,103.71256302270277,450,4bf58dd8d48988d142941735,Asian Restaurant
SKUDAI KIRI,PULAI,JOHOR,1.484477308633824,103.71207044223948,2549,4e75456d8998ed82a47ebe87,Mee Hoon Soto Jalan Skudai Kiri J.Bahru,1.4885283691450375,103.71243108026708,452,4bf58dd8d48988d142941735,Asian Restaurant
NONG CHIK,PULAI,JOHOR,1.4718223002258402,103.73990280427964,1622,502223cbe4b04d1e260d45d6,Murtabak Singapore,1.46296,103.738466,999,4bf58dd8d48988d142941735,Asian Restaurant
GERTAK MERAH,PULAI,JOHOR,1.461219428924552,103.7497222715472,1901,4f071043e4b0ca3a5ad0bf9f,Restoran ZZ,1.461342710979065,103.7450086746246,524,4bf58dd8d48988d142941735,Asian Restaurant
GERTAK MERAH,PULAI,JOHOR,1.461219428924552,103.7497222715472,1901,4ef669f76da1f7b66041eaf2,Restoran Sri Perada,1.4610991735356524,103.74474695481248,553,4bf58dd8d48988d142941735,Asian Restaurant
GERTAK MERAH,PULAI,JOHOR,1.461219428924552,103.7497222715472,1901,55642326498e0bddc00c9bee,Selasih Seri Gelam,1.4610669954315985,103.74290635342967,758,4bf58dd8d48988d142941735,Asian Restaurant
TAMBATAN,PULAI,JOHOR,1.4724690100769418,103.72847532216787,2051,5246a80511d23c612ec4c48a,Tea Garden,1.4648356326086882,103.72760350955187,855,4bf58dd8d48988d142941735,Asian Restaurant
YAHYA AWAL,PULAI,JOHOR,1.4775249430909358,103.74999508709095,1715,4c88bb59944e224b9a671e85,Penang Corner,1.4742547095090524,103.75544371896345,707,4bf58dd8d48988d142941735,Asian Restaurant
SRI JAYA,PULAI,JOHOR,1.500961491465152,103.6887038802094,2496,4d78b93110936dcbd2b04a89,Restoran Organik Villa Sayur-Sayuran,1.5064412355422974,103.68893802165985,610,4bf58dd8d48988d142941735,Asian Restaurant
PUCUNG PERLING,PULAI,JOHOR,1.4941176661951556,103.68407503319513,1730,55db0644498e5a9fc846c6b2,Cheezymeltz Perling,1.4883373275708662,103.6868344332018,712,4bf58dd8d48988d142941735,Asian Restaurant
PUCUNG PERLING,PULAI,JOHOR,1.4941176661951556,103.68407503319513,1730,4f537587e4b033653519ac15,Jintan Corner,1.4961959093232762,103.67903049026465,607,4bf58dd8d48988d142941735,Asian Restaurant
BUKIT INDAH,PULAI,JOHOR,1.4840931096712695,103.64868473746584,5483,4f978cf1e4b053c174e71c5d,Zen Taiwanese Restaurant,1.4812005199937406,103.65630753048731,907,4bf58dd8d48988d142941735,Asian Restaurant
BUKIT INDAH,PULAI,JOHOR,1.4840931096712695,103.64868473746584,5483,4d553924fb65236ae5c4f6b3,女仆餐厅,1.4773180000000001,103.650697,786,4bf58dd8d48988d142941735,Asian Restaurant
NUSA INDAH,PULAI,JOHOR,1.4760826230000343,103.65134189461668,2585,52a3ca8d11d2da184c7a02d3,7773美食中心,1.4696452233334558,103.64678301127562,878,4bf58dd8d48988d142941735,Asian Restaurant
BELIBIS PERLING,PULAI,JOHOR,1.4856518522473434,103.6789377230861,3627,510d086ce4b0ab889ad8e5f1,D'Qaseh Seafood,1.4799701727956271,103.6832630981791,794,4bf58dd8d48988d142941735,Asian Restaurant
BELIBIS PERLING,PULAI,JOHOR,1.4856518522473434,103.6789377230861,3627,4d89e9837139b1f78bb3bed4,Tong Yuen 东圆咖啡餐室,1.4823152639470478,103.6809624114828,434,4bf58dd8d48988d142941735,Asian Restaurant
BELIBIS PERLING,PULAI,JOHOR,1.4856518522473434,103.6789377230861,3627,4cff596dffcea1433dc92691,Kedai Makanan Yenn Sang 新源香美食中心,1.4810937454994688,103.68469057377405,816,4bf58dd8d48988d142941735,Asian Restaurant
KAMPONG UNGKU MOHSIN,JOHOR BAHRU,JOHOR,1.5083360023928871,103.7365068234822,2538,4ce888f9b9975481a54ffd44,Restoran Tepian Bahagia,1.5100590269511494,103.7280918705435,955,4bf58dd8d48988d142941735,Asian Restaurant
KAMPONG UNGKU MOHSIN,JOHOR BAHRU,JOHOR,1.5083360023928871,103.7365068234822,2538,527483f711d23080f5698bc4,Hung Kitchen 韩小厨,1.514490837713742,103.73991924426036,783,4bf58dd8d48988d142941735,Asian Restaurant
KAMPONG UNGKU MOHSIN,JOHOR BAHRU,JOHOR,1.5083360023928871,103.7365068234822,2538,52fb5eff11d2e88816c99168,warung tepi masjid,1.50294,103.741373,808,4bf58dd8d48988d142941735,Asian Restaurant
FELDA KAMPONG CHAHAYA BAHRU,PASIR GUDANG,JOHOR,1.535995875509124,103.9279367263273,3513,4eb14052dab4a8a58a6c49fc,Restoran Beeri,1.5312084929185577,103.93413784150606,871,4bf58dd8d48988d142941735,Asian Restaurant
SUNGAI DANGA,PULAI,JOHOR,1.4673452137916836,103.70136328567858,896,4f784c5de4b0d69369ea647c,D'Laguna Seafood Tomyam,1.4667907397250202,103.7010467882261,71,4bf58dd8d48988d142941735,Asian Restaurant
RAWA PERLING,PULAI,JOHOR,1.4766828797206195,103.6724055534412,2507,53f42c68498e4590c42a3e97,王奶奶面粉粿 Grandma Ong,1.4807293517114466,103.66666867786527,781,4bf58dd8d48988d142941735,Asian Restaurant
RAWA PERLING,PULAI,JOHOR,1.4766828797206195,103.6724055534412,2507,5449373d498e9539fd8481e0,FULLTANK KITCHEN,1.4732786869868668,103.6703930722857,440,4bf58dd8d48988d142941735,Asian Restaurant
RAWA PERLING,PULAI,JOHOR,1.4766828797206195,103.6724055534412,2507,4d58c77d23e0a0930d953d49,Restoran Jia Siang,1.4732444233220825,103.67216214839465,383,4bf58dd8d48988d142941735,Asian Restaurant
RAWA PERLING,PULAI,JOHOR,1.4766828797206195,103.6724055534412,2507,57d53ae7498ea4239499daf0,Sawadee-Sarn Thai Cuisine,1.4800441999999998,103.665924,812,4bf58dd8d48988d142941735,Asian Restaurant
RAWA PERLING,PULAI,JOHOR,1.4766828797206195,103.6724055534412,2507,5337e941498e40e66219253c,Restoran Al-Hanin,1.4806662797927856,103.66554260253906,883,4bf58dd8d48988d142941735,Asian Restaurant
TAMAN SRI SETIA,JOHOR BAHRU,JOHOR,1.4727733852424467,103.77005958366672,1015,557131be498ee891b589cd57,The Secret Cafe,1.4784521554133478,103.77533375511186,862,4bf58dd8d48988d142941735,Asian Restaurant
TAMAN SRI SETIA,JOHOR BAHRU,JOHOR,1.4727733852424467,103.77005958366672,1015,4d5be2e79ac9a09374786a94,Restoran Hi Wan 海皇果条仔,1.4808672997257355,103.77331537810488,971,4bf58dd8d48988d142941735,Asian Restaurant
TAMAN SRI SETIA,JOHOR BAHRU,JOHOR,1.4727733852424467,103.77005958366672,1015,4d7df8b8b25d6dcb9cd3af42,亚华手工鱼丸,1.472558,103.777825,864,4bf58dd8d48988d142941735,Asian Restaurant
TAMAN SRI SETIA,JOHOR BAHRU,JOHOR,1.4727733852424467,103.77005958366672,1015,4d63a6111a83f04d787c752b,财叶鱼头米粉果条面汤,1.463992272492505,103.77150754344738,990,4bf58dd8d48988d142941735,Asian Restaurant
TAMAN SRI SETIA,JOHOR BAHRU,JOHOR,1.4727733852424467,103.77005958366672,1015,4ddcda77ae60d6fc159556b7,Gerai Kuey Teow Jalan Lumba Kuda,1.4638947806811442,103.77147960960977,1000,4bf58dd8d48988d142941735,Asian Restaurant
STULANG,JOHOR BAHRU,JOHOR,1.4660958078016766,103.7746377149588,3198,4bd180fe462cb713c244da07,Nasi Goreng Seafood,1.46996966954777,103.78087148989904,816,4bf58dd8d48988d142941735,Asian Restaurant
STULANG,JOHOR BAHRU,JOHOR,1.4660958078016766,103.7746377149588,3198,4d03786f54d0236ab91be9d5,Restoran Senoko,1.4702249693958096,103.78176545600606,916,4bf58dd8d48988d142941735,Asian Restaurant
STULANG,JOHOR BAHRU,JOHOR,1.4660958078016766,103.7746377149588,3198,4cb88fcec7228cfa716a09ce,Teraju Tomyam,1.4703723816131231,103.78163540438216,912,4bf58dd8d48988d142941735,Asian Restaurant
DESA MAJIDI,JOHOR BAHRU,JOHOR,1.5083250740750267,103.76886711942508,1420,51ca8ad7498ea4c8a3b5c7f9,Mee Celup Majidee,1.508839,103.767395,173,4bf58dd8d48988d142941735,Asian Restaurant
DESA MAJIDI,JOHOR BAHRU,JOHOR,1.5083250740750267,103.76886711942508,1420,4d0cb4e0257d6dcb8f359767,warong pak arip,1.5074637108269135,103.7708639610952,242,4bf58dd8d48988d142941735,Asian Restaurant
SULAIMAN MENTERI,JOHOR BAHRU,JOHOR,1.5056802277428882,103.7645463708858,2834,5085648ee4b0e5b153f73c8c,"Gerai Mkn Jln Utama,Awe Kelate",1.5107520118357056,103.75778621368534,940,4bf58dd8d48988d142941735,Asian Restaurant
MAJEDEE BAHRU,JOHOR BAHRU,JOHOR,1.5093812653333647,103.76199664425931,1345,4cf0f99d1c158cfaafaacdb5,de traffic light,1.504359,103.76431600000001,615,4bf58dd8d48988d142941735,Asian Restaurant
TAMAN BARU,JOHOR BAHRU,JOHOR,1.5054151406363965,103.75459896731822,1907,5358b8e1498ec0085baf7c77,Bakso Super,1.5123986180188511,103.75315798084381,793,4bf58dd8d48988d142941735,Asian Restaurant
STULANG BARU,JOHOR BAHRU,JOHOR,1.5101858921579407,103.75515664410533,3505,4ceef29a3b03f04d0c563cdc,Roti Canai Kampong Melayu,1.515366701914896,103.74843765540892,944,4bf58dd8d48988d142941735,Asian Restaurant
KAMPONG MELAYU MAJEDEE II,JOHOR BAHRU,JOHOR,1.5142906169130783,103.74589362560877,1518,53c5f1ac498e0032517cd744,巴東咖喱 (Nasi Padang Tampoi),1.5189649577644695,103.74533025276298,524,4bf58dd8d48988d142941735,Asian Restaurant
KAMPONG MELAYU MAJEDEE II,JOHOR BAHRU,JOHOR,1.5142906169130783,103.74589362560877,1518,4cb4477d39458cfa815f1fa0,Long Kee,1.51360891536251,103.74036717463886,619,4bf58dd8d48988d142941735,Asian Restaurant
KAMPONG MELAYU MAJEDEE II,JOHOR BAHRU,JOHOR,1.5142906169130783,103.74589362560877,1518,4d40ff96255d8cfa77d66b05,滋味馆,1.5140607771711772,103.74026708813447,626,4bf58dd8d48988d142941735,Asian Restaurant
KAMPONG MELAYU MAJEDEE I,JOHOR BAHRU,JOHOR,1.5201873826795125,103.75342620952568,3113,4e171ffc1f6eb653a5ece22c,D'wanna Seafood,1.5282139288723258,103.75577080518462,930,4bf58dd8d48988d142941735,Asian Restaurant
KAMPONG MELAYU MAJEDEE I,JOHOR BAHRU,JOHOR,1.5201873826795125,103.75342620952568,3113,4d592ccb3281b1f7d2f9b72f,73ClubHse,1.5143646964919966,103.74873224008404,832,4bf58dd8d48988d142941735,Asian Restaurant
BANDAR MASAI TENGAH,PASIR GUDANG,JOHOR,1.4900846780000283,103.88356406900006,5341,4d01b2b418ff8cfa986ac057,Pondok Minang Mirza Nasi Padang,1.4871770654663587,103.88485239708052,354,4bf58dd8d48988d142941735,Asian Restaurant
BANDAR MASAI TENGAH,PASIR GUDANG,JOHOR,1.4900846780000283,103.88356406900006,5341,57e09c80498ee7f1733ff4c9,Nasi Kak Wok Pasir Gudang (Kedai Baru),1.4837413395827954,103.88857842928594,899,4bf58dd8d48988d142941735,Asian Restaurant
BANDAR MASAI TENGAH,PASIR GUDANG,JOHOR,1.4900846780000283,103.88356406900006,5341,507421c5e4b0421019b3eba5,Nasi Lemak Ayam Besar Masai,1.4874120000000002,103.881915,349,4bf58dd8d48988d142941735,Asian Restaurant
BANDAR MASAI TENGAH,PASIR GUDANG,JOHOR,1.4900846780000283,103.88356406900006,5341,556f3096498e5cf798e12ede,Nasi Lemak Kucing,1.4873958479998226,103.88187174237056,353,4bf58dd8d48988d142941735,Asian Restaurant
BANDAR MASAI UTARA,PASIR GUDANG,JOHOR,1.4931000950952704,103.88252047609528,396,4f54e384e4b07c31b6187a19,Bucida Garden,1.4944624859241196,103.87519958063368,828,4bf58dd8d48988d142941735,Asian Restaurant
BANDAR MASAI UTARA,PASIR GUDANG,JOHOR,1.4931000950952704,103.88252047609528,396,4c779e6e923ba1439e8067e6,Nasi Lemak Anggerik,1.4931402975914807,103.8735418936569,999,4bf58dd8d48988d142941735,Asian Restaurant
BANDAR MASAI UTARA,PASIR GUDANG,JOHOR,1.4931000950952704,103.88252047609528,396,4e3b0440d22d4aca8795e613,RSBP Tomyam & Seafood,1.494130781022805,103.87442258431598,908,4bf58dd8d48988d142941735,Asian Restaurant
PASIR GUDANG,PASIR GUDANG,JOHOR,1.4786042466316172,103.90389117500006,6974,4c96e6786b35a1432aee31dc,Lan Coffee House,1.4728054848438836,103.89734578763789,973,4bf58dd8d48988d142941735,Asian Restaurant
PASIR GUDANG,PASIR GUDANG,JOHOR,1.4786042466316172,103.90389117500006,6974,4c37fd1618e72d7f1bb117f5,Mee Bandung Udang Tanjung Langsat,1.4726441195750544,103.90312464938835,668,4bf58dd8d48988d142941735,Asian Restaurant
PASIR GUDANG,PASIR GUDANG,JOHOR,1.4786042466316172,103.90389117500006,6974,4cf193fce9425481b3376bc5,Restoran Hj. Abdul Rahman,1.4726942815090185,103.89726833367827,987,4bf58dd8d48988d142941735,Asian Restaurant
RUMAH PANGSA PKENJ,PASIR GUDANG,JOHOR,1.4586595376406633,103.90984074500004,3698,5148ae06e4b0fc457b0a4928,Restoran Nasi Kandar Aldeen,1.4541922774986584,103.90850543104528,519,4bf58dd8d48988d142941735,Asian Restaurant
RUMAH PANGSA PKENJ,PASIR GUDANG,JOHOR,1.4586595376406633,103.90984074500004,3698,513b2d12e4b01b2f6aeb45fa,Seri Timur Seafood,1.459683,103.916841,787,4bf58dd8d48988d142941735,Asian Restaurant
JOHOR JAYA TIMOR,PASIR GUDANG,JOHOR,1.5361541337333675,103.81055026980007,3461,4cc7a6f07be65481ae842923,食字路口 Taiwanese Restaurant,1.5405760220832854,103.80342055867888,933,4bf58dd8d48988d142941735,Asian Restaurant
JOHOR JAYA TIMOR,PASIR GUDANG,JOHOR,1.5361541337333675,103.81055026980007,3461,512ccbf3e4b062caa9856d1b,Restaurant A Wonderful 旺得富,1.5395971255134808,103.80558891313805,672,4bf58dd8d48988d142941735,Asian Restaurant
JOHOR JAYA TIMOR,PASIR GUDANG,JOHOR,1.5361541337333675,103.81055026980007,3461,562c3f39498eb208267452cb,Let's Eat 为食坊,1.5395557607516122,103.80449201485918,773,4bf58dd8d48988d142941735,Asian Restaurant
JOHOR JAYA TIMOR,PASIR GUDANG,JOHOR,1.5361541337333675,103.81055026980007,3461,4cb1197adb32f04da3c8c54d,Restoran Gui Yuan 桂苑港式點心茶樓,1.5400992855945004,103.80525942087681,734,4bf58dd8d48988d142941735,Asian Restaurant
JOHOR JAYA TIMOR,PASIR GUDANG,JOHOR,1.5361541337333675,103.81055026980007,3461,4d91c6ae9d0f721ee9481d73,Restoran Tomyam Bayu,1.53446,103.81133,207,4bf58dd8d48988d142941735,Asian Restaurant
JOHOR JAYA TIMOR,PASIR GUDANG,JOHOR,1.5361541337333675,103.81055026980007,3461,4f160643e4b03f4c0445d43b,Restoran Seroja Impian,1.5324454124540896,103.81268000349344,476,4bf58dd8d48988d142941735,Asian Restaurant
JOHOR JAYA TENGAH,PASIR GUDANG,JOHOR,1.5436634178919255,103.80936186254058,2282,4cfafa06c6cca35d41d08932,Restoran Kakalok 家家樂香港粥 Hong Kong Porridge,1.5417874002526173,103.80322913652556,713,4bf58dd8d48988d142941735,Asian Restaurant
JOHOR JAYA TENGAH,PASIR GUDANG,JOHOR,1.5436634178919255,103.80936186254058,2282,542e14de498e412bc36e6977,廣记廣记云云吞面,1.542837,103.800585,980,4bf58dd8d48988d142941735,Asian Restaurant
JOHOR JAYA TENGAH,PASIR GUDANG,JOHOR,1.5436634178919255,103.80936186254058,2282,4cdb7f79a1bba35d1a4295e5,Season's Cafe,1.5440720288249628,103.80109683621595,920,4bf58dd8d48988d142941735,Asian Restaurant
SENIBONG,PASIR GUDANG,JOHOR,1.4865354711166865,103.81409957688335,4015,52d3b075498e36abf5f2d55c,Corner Seafood & Asam Pedas Senibong,1.485982,103.813409,98,4bf58dd8d48988d142941735,Asian Restaurant
TERATAI,KULAI,JOHOR,1.5483715805000358,103.81628246070008,2108,52426a8e498edd051ae5d566,Restaurant 99,1.5541542391817167,103.81660817393437,644,4bf58dd8d48988d142941735,Asian Restaurant
JOHOR JAYA UTARA,PASIR GUDANG,JOHOR,1.5487259149000376,103.81175849400006,3425,4f850f8ce4b0cd08a44be7d6,Cafe  Sri Cahaya,1.5526482114236797,103.817581743902,781,4bf58dd8d48988d142941735,Asian Restaurant
JOHOR JAYA UTARA,PASIR GUDANG,JOHOR,1.5487259149000376,103.81175849400006,3425,57e0f11fcd10e2710b68cd26,Restoran Selera Seri Menanti,1.554672509530994,103.81588159145336,805,4bf58dd8d48988d142941735,Asian Restaurant
BANDAR PLENTONG UTARA,PASIR GUDANG,JOHOR,1.5286963303333652,103.81812122223342,572,52b8356e498edbe6f60db3ee,Restoran Mohamad Ali BFC,1.526057680834882,103.8244195721582,759,4bf58dd8d48988d142941735,Asian Restaurant
BANDAR PLENTONG SELATAN,PASIR GUDANG,JOHOR,1.5257896217895084,103.8195043034211,4325,4d8c3de0ac798cfa656e27e4,Ah Wha Eating House 亚华粿條,1.5206388965063466,103.82339708492931,718,4bf58dd8d48988d142941735,Asian Restaurant
BANDAR PLENTONG SELATAN,PASIR GUDANG,JOHOR,1.5257896217895084,103.8195043034211,4325,4dda60e12271c5d36d8077cb,Thai seafood,1.5210025175757913,103.8231464470435,669,4bf58dd8d48988d142941735,Asian Restaurant
TANJONG LANGSAT,TEBRAU,JOHOR,1.4674007437329455,103.99979710909322,477,51663d71e4b02cc1724bc6d2,brayani kukus tg langsat,1.4659727401462253,104.00317363056406,407,4bf58dd8d48988d142941735,Asian Restaurant
CAHAYA MASAI,TEBRAU,JOHOR,1.5118470245000333,103.92709197926571,1421,553100a6498ee038ee555933,Hijrah Corner Seafood,1.515514711629626,103.922802344422,628,4bf58dd8d48988d142941735,Asian Restaurant
TAMAN PASIR PUTEH,TEBRAU,JOHOR,1.4715676662716393,103.93277491916052,3291,5631baf3498ec5b70f00b1d8,怡来茶餐室 Restaurant Y&L Pasir Gudang,1.4742340809268455,103.93132229093416,337,4bf58dd8d48988d142941735,Asian Restaurant
TAMAN PASIR PUTEH,TEBRAU,JOHOR,1.4715676662716393,103.93277491916052,3291,50fa9c31e4b02c5df68c911b,Seluang Seafood Corner,1.4657245068749345,103.9335260066999,655,4bf58dd8d48988d142941735,Asian Restaurant
TAMAN PASIR PUTEH,TEBRAU,JOHOR,1.4715676662716393,103.93277491916052,3291,514e8b2be4b08b3090ae5c3b,Cendol Malaya,1.477698950548895,103.93361098359352,688,4bf58dd8d48988d142941735,Asian Restaurant
PEKAN PANDAN,TEBRAU,JOHOR,1.5287421140000266,103.76717783680648,2707,4d4559824e5d37044b39f693,Wan Dee Seafood,1.5326382259445,103.76397046823841,561,4bf58dd8d48988d142941735,Asian Restaurant
BUKIT MUTIARA,TEBRAU,JOHOR,1.55361971139084,103.7145949104368,1315,4de71913e4cd87869760ecf6,Restoran Selera Molek,1.5463533044286737,103.7121735668244,852,4bf58dd8d48988d142941735,Asian Restaurant
SRI PELANGI,JOHOR BAHRU,JOHOR,1.4770330782631846,103.77338801670182,3579,4d4a9d2f5129a35dc55645ac,Restoran Wah Yew 华友 (财) 小食馆,1.481797220100528,103.77402560165613,535,4bf58dd8d48988d142941735,Asian Restaurant
SRI PELANGI,JOHOR BAHRU,JOHOR,1.4770330782631846,103.77338801670182,3579,4cf0b9718333224b0d21068e,Swee Ang Restaurant 瑞安炖汤,1.4843469277358554,103.77517371562573,838,4bf58dd8d48988d142941735,Asian Restaurant
SRI PELANGI,JOHOR BAHRU,JOHOR,1.4770330782631846,103.77338801670182,3579,4e8bda43b803540e782d3394,Tai Hong Kopitiam 大丰擂茶,1.4833944943923716,103.77526673512787,738,4bf58dd8d48988d142941735,Asian Restaurant
SRI PELANGI,JOHOR BAHRU,JOHOR,1.4770330782631846,103.77338801670182,3579,54ab8230498e6c2f6dc0b6c1,阿顺祖传传咖咖喱鱼头专卖店,1.482724,103.775305,668,4bf58dd8d48988d142941735,Asian Restaurant
MOUNT AUSTIN,TEBRAU,JOHOR,1.5556473972237104,103.77901471350006,2477,567fc83c498ef1c0417a8cd6,Grandma Kitchen 外婆家乡小菜,1.5593326074881881,103.77338712707753,748,4bf58dd8d48988d142941735,Asian Restaurant
MOUNT AUSTIN,TEBRAU,JOHOR,1.5556473972237104,103.77901471350006,2477,5077b0d0e4b08aa6bd3a9484,可記經濟飯店,1.5604603924188147,103.78047685530694,559,4bf58dd8d48988d142941735,Asian Restaurant
MOUNT AUSTIN,TEBRAU,JOHOR,1.5556473972237104,103.77901471350006,2477,546e91c7498e94529d166dc2,Tea Garden 古文茶,1.5640479081607688,103.77856570600599,936,4bf58dd8d48988d142941735,Asian Restaurant
PANDAN,PASIR GUDANG,JOHOR,1.520904992243265,103.78082978644146,3643,4d15c83b8312236a811e54ba,好好火锅 Ho Ho Steamboat,1.5211115250989342,103.78451492397579,410,4bf58dd8d48988d145941735,Chinese Restaurant
MOUNT AUSTIN,TEBRAU,JOHOR,1.5556473972237104,103.77901471350006,2477,575f8f17498e22fa260b6ce3,Secret Ingredients Chicken Pot 秘制鸡公煲,1.5594358,103.773415,752,4bf58dd8d48988d142941735,Asian Restaurant
MOUNT AUSTIN,TEBRAU,JOHOR,1.5556473972237104,103.77901471350006,2477,59464ef4a4236221ad81d68c,肥肥蟹,1.562322,103.776549,792,4bf58dd8d48988d142941735,Asian Restaurant
JAYA MAS,GELANG PATAH,JOHOR,1.4953810260000309,103.65325757930006,2451,4d1dc35fd7b0b1f70d32fd9e,Restoran Tapino 乐乐火锅,1.4930913452928771,103.6579539812912,581,4bf58dd8d48988d145941735,Chinese Restaurant
BANDAR ULU TIRAM UTARA,TEBRAU,JOHOR,1.6024764858333629,103.82084615441671,1449,4cfddfe5c51fa1cdba70f32b,Restoran Mohamed Ali,1.5987300796332875,103.82188200186852,432,4bf58dd8d48988d142941735,Asian Restaurant
BANDAR ULU TIRAM UTARA,TEBRAU,JOHOR,1.6024764858333629,103.82084615441671,1449,4d33e03b6c7c721ebe5dbd56,SDS Cake House & Cafeteria,1.5988985685943782,103.8215639360286,406,4bf58dd8d48988d142941735,Asian Restaurant
BANDAR ULU TIRAM UTARA,TEBRAU,JOHOR,1.6024764858333629,103.82084615441671,1449,544c989e498eefae2e649a30,Am nasi ayam atas bus stand,1.598057,103.822425,522,4bf58dd8d48988d142941735,Asian Restaurant
BANDAR ULU TIRAM UTARA,TEBRAU,JOHOR,1.6024764858333629,103.82084615441671,1449,4fec7f10e4b0f47c7056fd8f,Jogja Bakso,1.5937540333535538,103.82038208006078,972,4bf58dd8d48988d142941735,Asian Restaurant
BANDAR ULU TIRAM SELATAN,TEBRAU,JOHOR,1.597192697588258,103.82195573376478,2419,50939a50e4b0578aada1bdc2,JJ Bakso Ulu Tiram,1.5986333722916164,103.82238743315615,167,4bf58dd8d48988d142941735,Asian Restaurant
BANDAR ULU TIRAM BARAT,TEBRAU,JOHOR,1.6023110782000338,103.81201217550007,2320,4d319fb75c2db60c78d5b96c,Restoran Ceria Selalu,1.5984772726230505,103.80853781290723,575,4bf58dd8d48988d142941735,Asian Restaurant
PELANGI,JOHOR BAHRU,JOHOR,1.4822781127600302,103.77536296224005,2445,4cd5aafc7da9a35d051aebb9,阿标,1.4867810858637769,103.7694946472333,823,4bf58dd8d48988d142941735,Asian Restaurant
SETANGGI,JOHOR BAHRU,JOHOR,1.5037698112963254,103.77067555829632,2516,5d73850830a1990008ea11f1,Nam Heong Southkey Outlets,1.5007868,103.77715,793,4bf58dd8d48988d142941735,Asian Restaurant
DESA JAYA,TEBRAU,JOHOR,1.558184585894757,103.8046281886316,2746,4c947ce0f7cfa1cd5b5cb415,The Chicken Rice Shop,1.5573182910818948,103.7959837231768,966,4bf58dd8d48988d142941735,Asian Restaurant
TAMAN SIANTAN,PULAI,JOHOR,1.5123213960000306,103.69837172215007,2725,4dc7aa431f6ef43b8a4a827b,Guang Hui Seafood,1.511481926656979,103.69236037915961,675,4bf58dd8d48988d142941735,Asian Restaurant
PERUMAHAN UDA,JOHOR BAHRU,JOHOR,1.4989877118333697,103.71551247655563,4845,4cc958eabfe1f04d79330d75,Budget Corner,1.5018778006334366,103.71433593457128,347,4bf58dd8d48988d142941735,Asian Restaurant
BANDAR BARU UDA,JOHOR BAHRU,JOHOR,1.4945375310625428,103.70942379118755,2837,4f851183e4b0efa75551a562,Warung Bakso Safirah,1.4965152178047827,103.7025002336392,801,4bf58dd8d48988d142941735,Asian Restaurant
KAMPONG PAHANG,PULAI,JOHOR,1.4571454692174164,103.76110996060874,782,507bc59ee4b04c2b98813079,Dapur Jendela,1.4564042781515416,103.76338708559055,266,4bf58dd8d48988d142941735,Asian Restaurant
HANG TUAH,GELANG PATAH,JOHOR,1.529357885387136,103.66157833422585,5327,4d5beb70fb186dcb276ff99a,Restoran Da Jia Lai 大家来,1.5213154733826568,103.65939180895418,927,4bf58dd8d48988d142941735,Asian Restaurant
HANG TUAH,GELANG PATAH,JOHOR,1.529357885387136,103.66157833422585,5327,4ff3c9fde4b0cc077c8bf0a8,Restoran Savage 山番王叻沙,1.5213438298305286,103.66351496319405,917,4bf58dd8d48988d142941735,Asian Restaurant
PERMAS 2,PASIR GUDANG,JOHOR,1.5112294350540778,103.82371746027029,2713,4d6cae40cb0eb1f74773a1a0,Giant Caterers,1.5123264504506382,103.8284612985657,541,4bf58dd8d48988d142941735,Asian Restaurant
PERMAS 2,PASIR GUDANG,JOHOR,1.5112294350540778,103.82371746027029,2713,4fa7a9b0e4b09d4d4724987b,Restoran Awe Kelate,1.5170304685917777,103.82112529005586,707,4bf58dd8d48988d142941735,Asian Restaurant
PERMAS 2,PASIR GUDANG,JOHOR,1.5112294350540778,103.82371746027029,2713,4e806310b803e97b5aa38250,Honbin Seadood Restaurant,1.517607,103.821016,770,4bf58dd8d48988d142941735,Asian Restaurant
PERMAS 2,PASIR GUDANG,JOHOR,1.5112294350540778,103.82371746027029,2713,4ce71b0a8ef78cfa9a06919b,Restoran Haji Musa,1.504306,103.822245,787,4bf58dd8d48988d142941735,Asian Restaurant
TAMAN SELATAN,KULAI,JOHOR,1.6609759059091205,103.59249434068188,3410,4d2867c9342d6dcbcceaf7ca,美食海鲜楼 Meei Shih Seafood Restaurant,1.6647521603110216,103.59243978742842,420,4bf58dd8d48988d142941735,Asian Restaurant
TAMAN SELATAN,KULAI,JOHOR,1.6609759059091205,103.59249434068188,3410,4f23f3bbe4b0d609c5fde541,Ina Tom Yam,1.6672334854130109,103.5899114339576,753,4bf58dd8d48988d142941735,Asian Restaurant
BUKIT KEMPAS,PULAI,JOHOR,1.5362919892222573,103.68965066113894,3440,4d590efb1d4a8cfa5c5387ed,228 美食中心,1.533901689781189,103.69068962198648,290,4bf58dd8d48988d142941735,Asian Restaurant
BUKIT KEMPAS,PULAI,JOHOR,1.5362919892222573,103.68965066113894,3440,4c7341d30e23b1f7652b20dc,Dong Yuan Kitchen,1.540208832471513,103.68562814560323,624,4bf58dd8d48988d142941735,Asian Restaurant
BUKIT KEMPAS,PULAI,JOHOR,1.5362919892222573,103.68965066113894,3440,515ae96fe4b0e2ce0a4ed56e,Restoran Good All 大家好,1.5336023495125741,103.69095228423176,332,4bf58dd8d48988d142941735,Asian Restaurant
BUKIT KEMPAS,PULAI,JOHOR,1.5362919892222573,103.68965066113894,3440,50b43ffc498ece0fc16304ce,Chang Lai 常来手工面,1.5407657673134731,103.68357543204577,839,4bf58dd8d48988d142941735,Asian Restaurant
PEKAN TAMPOI,PULAI,JOHOR,1.4999470818889271,103.7014153883334,3102,58a717d91b36d431c0e04d48,Jaza 25 cafe,1.5062848,103.70108,706,4bf58dd8d48988d142941735,Asian Restaurant
PEKAN TAMPOI,PULAI,JOHOR,1.4999470818889271,103.7014153883334,3102,4dbfe38ca86e2f4250b3f0e4,Jalan Semangka Kg. Seri Jaya,1.4999465097749332,103.69377979917415,849,4bf58dd8d48988d142941735,Asian Restaurant
RINTING MERANTI,PASIR GUDANG,JOHOR,1.4895978756000319,103.87767017340006,2792,4e6ac6851495acb0c6e9d969,Gerai Nasi Lemak Kak Nah,1.4837444833074451,103.87614463712887,673,4bf58dd8d48988d142941735,Asian Restaurant
RINTING MERANTI,PASIR GUDANG,JOHOR,1.4895978756000319,103.87767017340006,2792,4d70b0c095acb1f7f07509b9,Goreng Pisang Gelam,1.483687906591681,103.87621825291671,677,4bf58dd8d48988d142941735,Asian Restaurant
JOHOR JAYA SELATAN,PASIR GUDANG,JOHOR,1.529178235404289,103.80661511193622,1952,535517d6498e4646eac3e85c,d'goobog food n drink,1.5259049999999998,103.80272099999999,566,4bf58dd8d48988d142941735,Asian Restaurant
JOHOR JAYA SELATAN,PASIR GUDANG,JOHOR,1.529178235404289,103.80661511193622,1952,55744478498ef85b1db22aa8,Kedai Makan Adam Misdi,1.523950330377671,103.80435424435936,634,4bf58dd8d48988d142941735,Asian Restaurant
JOHOR JAYA SELATAN,PASIR GUDANG,JOHOR,1.529178235404289,103.80661511193622,1952,50fb7604e4b0396364d59dfa,新山亚历肉骨茶_teratai,1.536171,103.81048,889,4bf58dd8d48988d142941735,Asian Restaurant
PERUBATAN,GELANG PATAH,JOHOR,1.5348179666071802,103.6112664415358,2030,4de594d92271f377c2976c1d,Gerai Roti Canai Abg Lan,1.532319,103.619059,910,4bf58dd8d48988d142941735,Asian Restaurant
TAMAN MEGAH RIA,PASIR GUDANG,JOHOR,1.4889907932603113,103.8496536566302,2695,4d27283277a2a1cda30156b7,Restaurant Lucky Drive,1.487523000519125,103.84840388530891,214,4bf58dd8d48988d142941735,Asian Restaurant
TAMAN MEGAH RIA,PASIR GUDANG,JOHOR,1.4889907932603113,103.8496536566302,2695,4ef1f10b9adfcbc0ac1ec465,Restoren Bawah Pokok,1.4859899242931676,103.85162146789419,399,4bf58dd8d48988d142941735,Asian Restaurant
TAMAN MEGAH RIA,PASIR GUDANG,JOHOR,1.4889907932603113,103.8496536566302,2695,515d04afe4b06c8225324062,Nic Honey Corner,1.4971672784642833,103.84810077760159,926,4bf58dd8d48988d142941735,Asian Restaurant
PERMAS,PASIR GUDANG,JOHOR,1.5120548905384947,103.80853309736263,4298,500a8735e4b03c6eb31ca256,Bazaar Ramadhan Permas Jaya,1.5130220033425033,103.8138999976484,606,4bf58dd8d48988d142941735,Asian Restaurant
RINTING CENDANA,PASIR GUDANG,JOHOR,1.4944270926956855,103.86745396893484,2747,54e18486498e4e594cb0e7c2,Mee Rebus Haji Wahid,1.4906832099113347,103.86756894426875,416,4bf58dd8d48988d142941735,Asian Restaurant
MOLEK HARMONI,PASIR GUDANG,JOHOR,1.5154971409065747,103.79618326383181,2942,4d5fc6335c39b1f739b9fb49,winner tom yam,1.5144846055747463,103.79321835992724,348,4bf58dd8d48988d142941735,Asian Restaurant
TAMAN MOLEK,PASIR GUDANG,JOHOR,1.5305189735098281,103.78967985288237,2888,4c81c004d8086dcb3d847052,美乐美食店 Bidor,1.5330993457331286,103.79376945309382,538,4bf58dd8d48988d142941735,Asian Restaurant
TAMAN MOLEK,PASIR GUDANG,JOHOR,1.5305189735098281,103.78967985288237,2888,4e76dce5b993a71aa496e3c6,铭记三楼米粉,1.5344145728369891,103.79359067686435,614,4bf58dd8d48988d142941735,Asian Restaurant
TAMAN MOLEK,PASIR GUDANG,JOHOR,1.5305189735098281,103.78967985288237,2888,4ffffc05e4b0b5d60d4c6564,Tong Kim 泳金砂煲海鲜粥,1.5282343386335755,103.79306424367485,454,4bf58dd8d48988d142941735,Asian Restaurant
TAMAN MOLEK,PASIR GUDANG,JOHOR,1.5305189735098281,103.78967985288237,2888,4d5662169e508cfa27b90c9b,Restoran Laguna Kuring,1.528870801417391,103.79352906278535,465,4bf58dd8d48988d142941735,Asian Restaurant
TAMAN MOLEK,PASIR GUDANG,JOHOR,1.5305189735098281,103.78967985288237,2888,5572f653498eedcba9152c05,Goody Soup Restuarant 好烫头,1.536471728556874,103.79537250870413,916,4bf58dd8d48988d142941735,Asian Restaurant
TAMAN MOLEK,PASIR GUDANG,JOHOR,1.5305189735098281,103.78967985288237,2888,534a03a5498eaa5f2c911e34,KopiLicious,1.5279519756204571,103.79168720244968,362,4bf58dd8d48988d142941735,Asian Restaurant
TAMAN MOLEK,PASIR GUDANG,JOHOR,1.5305189735098281,103.78967985288237,2888,4d0ea3a13e306dcbf7e0a889,Kopi & Bread Molek,1.5298915682194092,103.79062270652857,126,4bf58dd8d48988d142941735,Asian Restaurant
TAMAN MOLEK,PASIR GUDANG,JOHOR,1.5305189735098281,103.78967985288237,2888,4d9c08716bd2a35da22cbfc8,新乐香茶餐室,1.5338068975486685,103.79404312681328,608,4bf58dd8d48988d142941735,Asian Restaurant
PERTANIAN,GELANG PATAH,JOHOR,1.545835538452416,103.62128006955956,4992,4ee16d562c5b955eefdfdce2,Selera rasa Seri menanti,1.54991145914698,103.62331970296171,507,4bf58dd8d48988d142941735,Asian Restaurant
PERTANIAN,GELANG PATAH,JOHOR,1.545835538452416,103.62128006955956,4992,4d31b2ddc75a6ea8b6b906ae,Restoran Choa Phraya Tom Yam,1.5511741556529692,103.62451728634713,694,4bf58dd8d48988d142941735,Asian Restaurant
PERTANIAN,GELANG PATAH,JOHOR,1.545835538452416,103.62128006955956,4992,4d081bc4c26ba143627d1717,Warung Kak Ani,1.5397728263674082,103.6271060842697,935,4bf58dd8d48988d142941735,Asian Restaurant
JOHOR JAYA BARAT,PASIR GUDANG,JOHOR,1.5444554117157046,103.79791075468628,3694,4d3b8e14af8ca143a9c1f8f6,Restoran Oktober 十月餐厅,1.5430916313161056,103.79401832188627,458,4bf58dd8d48988d142941735,Asian Restaurant
JOHOR JAYA BARAT,PASIR GUDANG,JOHOR,1.5444554117157046,103.79791075468628,3694,4d2fd5814db137045e7df55d,Restoren Man Janggut,1.541196,103.794278,543,4bf58dd8d48988d142941735,Asian Restaurant
JOHOR JAYA BARAT,PASIR GUDANG,JOHOR,1.5444554117157046,103.79791075468628,3694,4e8b938bd3e303e9db342168,祥 华人煎饼 Bakawali,1.5416461574198626,103.79437317018223,502,4bf58dd8d48988d142941735,Asian Restaurant
JOHOR JAYA BARAT,PASIR GUDANG,JOHOR,1.5444554117157046,103.79791075468628,3694,4d574e0f58856dcbe6c6646d,Kedai Makan Hao Yu 豪友点心楼,1.5396669505867142,103.79655456419943,553,4bf58dd8d48988d142941735,Asian Restaurant
BERTAM DELIMA,TEBRAU,JOHOR,1.5344003746989496,103.77346187690328,1515,503af4efe4b0ee7faf9ade58,Warung Depan Nestronics,1.5398497581481934,103.77395629882812,609,4bf58dd8d48988d142941735,Asian Restaurant
DESA TEBRAU,TEBRAU,JOHOR,1.55602735161405,103.7935282482632,1806,51e60ee8498ee81b4acc26d9,Sing Ting 新天面粉糕专卖店,1.5579705055162782,103.78866372558024,582,4bf58dd8d48988d142941735,Asian Restaurant
DESA TEBRAU,TEBRAU,JOHOR,1.55602735161405,103.7935282482632,1806,4d494f7bb480a1436a1022ec,Restoran Sayed,1.5557786907040196,103.79517577345185,185,4bf58dd8d48988d142941735,Asian Restaurant
DESA TEBRAU,TEBRAU,JOHOR,1.55602735161405,103.7935282482632,1806,5929972451950e1087010d9c,2.8美食阁,1.5533649999999999,103.78509,984,4bf58dd8d48988d142941735,Asian Restaurant
KANGKAR TEBRAU BARU,TEBRAU,JOHOR,1.5344099576667036,103.76170824183338,1635,527c97dc11d206e597da0df0,Nasi Ayam Penyet Berempah,1.5355874066316593,103.75949115776623,279,4bf58dd8d48988d142941735,Asian Restaurant
KANGKAR TEBRAU BARU,TEBRAU,JOHOR,1.5344099576667036,103.76170824183338,1635,4ccd70e82dc43704605ece08,Norhakimi Seafood,1.5327195988905002,103.76428217458486,342,4bf58dd8d48988d142941735,Asian Restaurant
TAMAN DAHLIA,PULAI,JOHOR,1.5116441009091304,103.69369141027279,2743,4d153e39401db60c01badea4,Kedai Makanan K. K. Loh 家家来美食中心,1.5167986439703267,103.68979192094429,719,4bf58dd8d48988d145941735,Chinese Restaurant
TAMAN DAHLIA,PULAI,JOHOR,1.5116441009091304,103.69369141027279,2743,4d7b92a2cf3f370431303e40,Restoran 123,1.519248067522173,103.69740476123744,941,4bf58dd8d48988d145941735,Chinese Restaurant
TAMAN DAHLIA,PULAI,JOHOR,1.5116441009091304,103.69369141027279,2743,4caaa2282776b60ce458450d,Today Coffee,1.5189605260513448,103.69800987372622,945,4bf58dd8d48988d145941735,Chinese Restaurant
SETIA ENAU,TEBRAU,JOHOR,1.5803717054884054,103.75740078260478,3168,52942375498e337211e9c9e2,Beijing Chicken Rice 星新北京起骨海南鸡饭,1.5729110744360215,103.75662830529757,834,4bf58dd8d48988d145941735,Chinese Restaurant
TAMAN DAMAI JAYA,GELANG PATAH,JOHOR,1.5063505716190877,103.65133763957151,4668,4d3ae87fbf6d5481669ed1e1,Restoran Chee Hwa 聚华茶餐室,1.5095296601040158,103.65167896896706,355,4bf58dd8d48988d145941735,Chinese Restaurant
TAMAN DAMAI JAYA,GELANG PATAH,JOHOR,1.5063505716190877,103.65133763957151,4668,4e081ad06284d9ee92d9a186,Choy Kee KL Ampang Yong Tau Foo 吉隆坡安邦娘酿豆腐,1.5108234219349306,103.65321722783337,540,4bf58dd8d48988d145941735,Chinese Restaurant
TAMAN DAMAI JAYA,GELANG PATAH,JOHOR,1.5063505716190877,103.65133763957151,4668,4cd62ddc76ab721e9ae3716a,Restoran Sing Ting 新天面粉果专卖店,1.5132097375605902,103.65614462490484,932,4bf58dd8d48988d145941735,Chinese Restaurant
TAMAN DAMAI JAYA,GELANG PATAH,JOHOR,1.5063505716190877,103.65133763957151,4668,4d05aa7fc2e53704f3a4bf67,顺利苦瓜汤,1.500685,103.651597,631,4bf58dd8d48988d145941735,Chinese Restaurant
TAMAN PUTRI,KULAI,JOHOR,1.6596886792500312,103.58370396621879,2295,4ce4b39c42f0b1f714ff8ece,Cathay Restaurant新国泰冷气酒家,1.661052786277226,103.58350716891573,153,4bf58dd8d48988d145941735,Chinese Restaurant
TAMAN PUTRI,KULAI,JOHOR,1.6596886792500312,103.58370396621879,2295,4d608255e4fe54817149819e,雲來點心樓,1.65549849595082,103.58817216521516,681,4bf58dd8d48988d145941735,Chinese Restaurant
TAMAN PUTRI,KULAI,JOHOR,1.6596886792500312,103.58370396621879,2295,4df2286ec65bf55ee5264d75,Restaurant Yuw Meng 友明野味海鲜楼,1.667917793044139,103.586489089178,967,4bf58dd8d48988d145941735,Chinese Restaurant
TAMAN PUTRI,KULAI,JOHOR,1.6596886792500312,103.58370396621879,2295,4f253d62e4b04d36debbbbaf,Restoran Bamboo Land,1.6581008076796313,103.585308729652,251,4bf58dd8d48988d145941735,Chinese Restaurant
TAMAN PUTRI,KULAI,JOHOR,1.6596886792500312,103.58370396621879,2295,4f24bb3be4b0fd183833d60f,海南正宗牛肉猪肉粉,1.6556312203259105,103.588653836834,712,4bf58dd8d48988d145941735,Chinese Restaurant
SENTOSA,JOHOR BAHRU,JOHOR,1.4942420712222575,103.77542012194452,4886,4f80430ee4b009277ebb9161,Goh Zha Lang 古早人台灣粥餐館,1.4932170019982718,103.77173300851696,425,4bf58dd8d48988d145941735,Chinese Restaurant
SENTOSA,JOHOR BAHRU,JOHOR,1.4942420712222575,103.77542012194452,4886,5320731c498e96a03819175b,Grandma ONG 王奶奶面粉粿,1.4931250988848732,103.77174440335085,427,4bf58dd8d48988d145941735,Chinese Restaurant
SENTOSA,JOHOR BAHRU,JOHOR,1.4942420712222575,103.77542012194452,4886,4c498d8da3ace21ec6cbbf3b,Restoran Pekin 北京楼,1.4930581277681652,103.78404961978727,969,4bf58dd8d48988d145941735,Chinese Restaurant
SENTOSA,JOHOR BAHRU,JOHOR,1.4942420712222575,103.77542012194452,4886,4bdcdfe62a3a0f4789ceb4b6,Seng Steam Fish Restaurant 成蒸鱼与肉骨茶,1.4877600055561602,103.77470991211521,725,4bf58dd8d48988d145941735,Chinese Restaurant
SENTOSA,JOHOR BAHRU,JOHOR,1.4942420712222575,103.77542012194452,4886,4c6fc2f9d97fa143dedaf3ca,Restoran Teck Sing 德兴茶餐室,1.4903126871833705,103.76776545773376,957,4bf58dd8d48988d145941735,Chinese Restaurant
SENTOSA,JOHOR BAHRU,JOHOR,1.4942420712222575,103.77542012194452,4886,4bdd688ef219c9b630851210,Restoran GP Tan 三楼阿坤鱼头汤,1.4944875253840038,103.78292860189276,835,4bf58dd8d48988d145941735,Chinese Restaurant
SENTOSA,JOHOR BAHRU,JOHOR,1.4942420712222575,103.77542012194452,4886,4cf27262c9af6dcb9f2fa07f,Restaurant See Hai 新四海101海鲜楼,1.4927936785606633,103.76838816405649,798,4bf58dd8d48988d145941735,Chinese Restaurant
SENTOSA,JOHOR BAHRU,JOHOR,1.4942420712222575,103.77542012194452,4886,4cae9a4ac5e6a1cdbc81c6f6,Soon Huat Bak Kut Teh 順發肉骨茶,1.4904418711473204,103.76778619313907,949,4bf58dd8d48988d145941735,Chinese Restaurant
SENTOSA,JOHOR BAHRU,JOHOR,1.4942420712222575,103.77542012194452,4886,539d4d43498e08a9ddc40d00,顺发肉骨茶 (Restoran Soon Loy),1.4941907985621607,103.78221509126207,756,4bf58dd8d48988d145941735,Chinese Restaurant
SENTOSA,JOHOR BAHRU,JOHOR,1.4942420712222575,103.77542012194452,4886,541d1948498e353abe9c595b,順發肉骨茶,1.494090321332915,103.78233188324668,769,4bf58dd8d48988d145941735,Chinese Restaurant
TAMAN MAJEDEE,JOHOR BAHRU,JOHOR,1.4980341659286005,103.75671405985723,2827,4cc1d60cb2beb1f7d6000c4c,Restoran Tapai Tang 大排档海鲜饭店,1.4952582165819992,103.76527356986372,1001,4bf58dd8d48988d145941735,Chinese Restaurant
TAMAN MAJEDEE,JOHOR BAHRU,JOHOR,1.4980341659286005,103.75671405985723,2827,4e4111aae4cd43246432a6aa,Sing Kee 星記飯店,1.4952345922305088,103.76517798837773,992,4bf58dd8d48988d145941735,Chinese Restaurant
TAMAN MAJEDEE,JOHOR BAHRU,JOHOR,1.4980341659286005,103.75671405985723,2827,4dbe4946cda109aa6cc6df0e,金宝猪肠粉,1.4942121772442702,103.76374992204596,891,4bf58dd8d48988d145941735,Chinese Restaurant
TAMAN MAJEDEE,JOHOR BAHRU,JOHOR,1.4980341659286005,103.75671405985723,2827,52ba57f811d2dc72ddf1bb05,Restorah Hj. Shahrin Chinese Food,1.5019962323498737,103.74870203055613,994,4bf58dd8d48988d145941735,Chinese Restaurant
ARA CEMERLANG,TEBRAU,JOHOR,1.5653947814737132,103.80903837536846,1515,584bebe6d439075d5518820e,Restoran Pekin KK 北京楼,1.5598813616886855,103.81140214196958,667,4bf58dd8d48988d145941735,Chinese Restaurant
ARA CEMERLANG,TEBRAU,JOHOR,1.5653947814737132,103.80903837536846,1515,5194d48e498eb341498af8ae,Wan Fu Restaurant 万福楼,1.5634877666860307,103.80099805013668,919,4bf58dd8d48988d145941735,Chinese Restaurant
ARA CEMERLANG,TEBRAU,JOHOR,1.5653947814737132,103.80903837536846,1515,4d4fd3a9dcce224b7d7ed11b,Majestic Scene Restaurant 美景冷气酒家,1.5613029652329364,103.8075117726618,486,4bf58dd8d48988d145941735,Chinese Restaurant
ARA CEMERLANG,TEBRAU,JOHOR,1.5653947814737132,103.80903837536846,1515,4ca8120eb0b8236a783db0e6,Restoran Ah Siang 亚祥好味烧腊,1.5609351470182649,103.80789163883081,512,4bf58dd8d48988d145941735,Chinese Restaurant
ARA CEMERLANG,TEBRAU,JOHOR,1.5653947814737132,103.80903837536846,1515,4dd9e91a52b1a5c644889cd4,明春经济饭,1.566023,103.814394,600,4bf58dd8d48988d145941735,Chinese Restaurant
ARA CEMERLANG,TEBRAU,JOHOR,1.5653947814737132,103.80903837536846,1515,50ebc9c7e4b0000d015d92f7,Top Chef Restaurant 大团圆海鲜楼,1.5600399999999999,103.808183,603,4bf58dd8d48988d145941735,Chinese Restaurant
ARA CEMERLANG,TEBRAU,JOHOR,1.5653947814737132,103.80903837536846,1515,56723d07498e9b15d140b708,we we kopitiam,1.5594151512624417,103.80958962107327,668,4bf58dd8d48988d145941735,Chinese Restaurant
ARA CEMERLANG,TEBRAU,JOHOR,1.5653947814737132,103.80903837536846,1515,5374ab35498e73c5f59d806b,Da Bin Lo Steamboat 打甂炉,1.5684696597762382,103.80186283738249,868,4bf58dd8d48988d145941735,Chinese Restaurant
ARA CEMERLANG,TEBRAU,JOHOR,1.5653947814737132,103.80903837536846,1515,4fcded5ce4b0083fcc627ff2,Kah Kah Loke 佳佳乐苦瓜汤,1.5687916812442697,103.80280105816654,790,4bf58dd8d48988d145941735,Chinese Restaurant
KAMPONG PASIR,PULAI,JOHOR,1.495703303102596,103.69384194356415,3277,4cde3c3e70bba1cdbe425fc4,Hin Hock Bak Kut Teh 兴福肉骨茶,1.4974043896141094,103.70166791406113,891,4bf58dd8d48988d145941735,Chinese Restaurant
KAMPONG PASIR,PULAI,JOHOR,1.495703303102596,103.69384194356415,3277,4f1905d7e4b0cfc595b61c71,Restoran Onn Kee Jaya,1.497584872506159,103.70170847152504,900,4bf58dd8d48988d145941735,Chinese Restaurant
BANDAR SENAI SELATAN,KULAI,JOHOR,1.6019049995333663,103.64102016666672,2031,52aa697511d29d2509f2d41d,Restoran Min Kee 明记茶室,1.6013389999999998,103.643745,309,4bf58dd8d48988d145941735,Chinese Restaurant
BANDAR SENAI SELATAN,KULAI,JOHOR,1.6019049995333663,103.64102016666672,2031,4ebdd582b803bca7dd5d29bc,Restoran Monyet 猴子面茶餐室,1.6044822,103.63942,337,4bf58dd8d48988d145941735,Chinese Restaurant
BANDAR KULAI TENGAH,KULAI,JOHOR,1.6576188401538725,103.60240703623079,2039,4d2e07a05055a35d07518fca,Mok Gao 莫搞牛肉面,1.66047460257123,103.603865199581,356,4bf58dd8d48988d145941735,Chinese Restaurant
BANDAR KULAI TENGAH,KULAI,JOHOR,1.6576188401538725,103.60240703623079,2039,4d8e8553ca75b60c84a301a9,远远来云吞面,1.65997595027803,103.6029449594574,269,4bf58dd8d48988d145941735,Chinese Restaurant
BANDAR KULAI TIMOR,KULAI,JOHOR,1.653115071000039,103.6055662343182,2160,4c01fe7ca8e676b05bdfc532,新强记烧臘餐店Restaurant Sin Keong Kee,1.651779515477074,103.61048552061882,567,4bf58dd8d48988d145941735,Chinese Restaurant
KAMPONG WADI HANA,JOHOR BAHRU,JOHOR,1.4747474969615717,103.7579789266539,2211,4d337ffa98336dcb62992ef0,榕樹下金目盧魚肉粿條湯,1.4777296999999998,103.7536,589,4bf58dd8d48988d145941735,Chinese Restaurant
KANGKAR PULAI,GELANG PATAH,JOHOR,1.5513762064444814,103.6076542141667,3095,4da9982793a04642f0699755,Qing Palace,1.5540029741645858,103.61389676390888,753,4bf58dd8d48988d145941735,Chinese Restaurant
KEEMBONG,PASIR GUDANG,JOHOR,1.5442233963000331,103.81355719030005,3918,4d7c4b3acf3f37044b994e40,瑞兴鸡饭,1.5377120000000002,103.80986999999999,832,4bf58dd8d48988d145941735,Chinese Restaurant
KEEMBONG,PASIR GUDANG,JOHOR,1.5442233963000331,103.81355719030005,3918,4f9f3bf3e4b0b1784f4c7341,家圆咖啡店,1.5481663605233806,103.81162722792195,488,4bf58dd8d48988d145941735,Chinese Restaurant
KEEMBONG,PASIR GUDANG,JOHOR,1.5442233963000331,103.81355719030005,3918,4e63708bc65b2dc8a00c257a,Restoran How Inn 好運,1.5407599623229096,103.80583660351955,941,4bf58dd8d48988d145941735,Chinese Restaurant
KEEMBONG,PASIR GUDANG,JOHOR,1.5442233963000331,103.81355719030005,3918,4ba31db5f964a520652c38e3,Restoran Ah Huang,1.5379298817046914,103.8101386398956,797,4bf58dd8d48988d145941735,Chinese Restaurant
JAYA MAS,GELANG PATAH,JOHOR,1.4953810260000309,103.65325757930006,2451,5631bc54498ea1b7232e69d8,Bar Wang Rice 霸王饭,1.4947395896991498,103.65593408444265,306,4bf58dd8d48988d145941735,Chinese Restaurant
JAYA MAS,GELANG PATAH,JOHOR,1.4953810260000309,103.65325757930006,2451,4d1dc35fd7b0b1f70d32fd9e,Restoran Tapino 乐乐火锅,1.4930913452928771,103.6579539812912,581,4bf58dd8d48988d145941735,Chinese Restaurant
FLAT PERKASA 'A' TUTA,GELANG PATAH,JOHOR,1.5113398877727653,103.65144233422735,3421,4dafc3c981548efb15b2970c,Restoran Jay Bee Garden (JB園砂煲咖哩魚頭),1.518552411496732,103.65196831603235,805,4bf58dd8d48988d145941735,Chinese Restaurant
FLAT PERKASA 'A' TUTA,GELANG PATAH,JOHOR,1.5113398877727653,103.65144233422735,3421,4cf7829f1cfea093dd45e539,嘉賓冷氣酒家 Restoran Chia Ping,1.5191173221139065,103.65315239408409,886,4bf58dd8d48988d145941735,Chinese Restaurant
FLAT PERKASA 'A' TUTA,GELANG PATAH,JOHOR,1.5113398877727653,103.65144233422735,3421,4ccb81a7ba0a548150313759,创新果条汤,1.5196180000000001,103.65236815739289,927,4bf58dd8d48988d145941735,Chinese Restaurant
FLAT PERKASA 'A' TUTA,GELANG PATAH,JOHOR,1.5113398877727653,103.65144233422735,3421,59046d3b9746172d9d03d130,Pin Xiang Ji 品香記小炒,1.5172860000000001,103.657691,960,4bf58dd8d48988d145941735,Chinese Restaurant
FLAT PERKASA 'A' TUTA,GELANG PATAH,JOHOR,1.5113398877727653,103.65144233422735,3421,4cde7ee194c3b60c38a565ea,Soon Soon 顺顺肉骨茶,1.517018,103.658312,991,4bf58dd8d48988d145941735,Chinese Restaurant
NIPAH DELIMA,TEBRAU,JOHOR,1.5443707262308064,103.75482538480772,1475,4d0c73291f6bf04d399f7731,Restoran Pertama Kopitiam,1.5448673919822586,103.76278502241293,887,4bf58dd8d48988d145941735,Chinese Restaurant
NIPAH DELIMA,TEBRAU,JOHOR,1.5443707262308064,103.75482538480772,1475,4ef831638b81ef98d14a60fe,Muar food street,1.5390151044913376,103.74942052437244,846,4bf58dd8d48988d145941735,Chinese Restaurant
PINANG SAGU,TEBRAU,JOHOR,1.5524713783823945,103.76077020750004,2454,4e4206381f6ec93e9250bfba,威咸茶美食店,1.549762660517829,103.76466066593625,527,4bf58dd8d48988d145941735,Chinese Restaurant
PINANG SAGU,TEBRAU,JOHOR,1.5524713783823945,103.76077020750004,2454,4f55e7f1e4b0e1dd908b59e7,Happy Family Seafood Restaurant 佳佳海鲜饭店,1.5503459358514926,103.76458899680873,486,4bf58dd8d48988d145941735,Chinese Restaurant
TAMAN ABAD,JOHOR BAHRU,JOHOR,1.4867153413200336,103.76014665800007,2175,4ba4e591f964a52046c038e3,Geylang Lor9 Fresh Frog Porridge 芽籠九巷活田雞,1.4854087974249384,103.76075788866848,160,4bf58dd8d48988d145941735,Chinese Restaurant
TAMAN ABAD,JOHOR BAHRU,JOHOR,1.4867153413200336,103.76014665800007,2175,4cb365b91463a143033cb4a9,Goh Zha Lang 古早人,1.4872050007132147,103.76017320955441,54,4bf58dd8d48988d145941735,Chinese Restaurant
TAMAN ABAD,JOHOR BAHRU,JOHOR,1.4867153413200336,103.76014665800007,2175,4e55e9f6c65be3cea45f8d9b,Ah Hua Kuey Teow 亚华粿條汤,1.485702,103.761209,163,4bf58dd8d48988d145941735,Chinese Restaurant
TAMAN ABAD,JOHOR BAHRU,JOHOR,1.4867153413200336,103.76014665800007,2175,4d3eaf3ca2e4b1f756ebfc25,Restoran Soon Soon Heng Bak Kut Teh 顺顺兴肉骨茶,1.4861199893011712,103.76176291082248,191,4bf58dd8d48988d145941735,Chinese Restaurant
TAMAN ABAD,JOHOR BAHRU,JOHOR,1.4867153413200336,103.76014665800007,2175,4d99dd4b61a3a1cdf6a1ed42,New Lucky Seafood Restaurant 新运海鲜酒楼,1.4871833030319508,103.7674370924745,812,4bf58dd8d48988d145941735,Chinese Restaurant
TAMAN ABAD,JOHOR BAHRU,JOHOR,1.4867153413200336,103.76014665800007,2175,4d6f1cde56dea09371b6bb8c,Restoran Tua Thow 大頭餐室,1.4842552650508185,103.75191171235585,956,4bf58dd8d48988d145941735,Chinese Restaurant
TAMAN ABAD,JOHOR BAHRU,JOHOR,1.4867153413200336,103.76014665800007,2175,4c46d8005438b713636eb57b,Kedai Makanan Ah Soon 亚顺肉骨茶,1.4886964331450439,103.76745662941305,842,4bf58dd8d48988d145941735,Chinese Restaurant
TAMAN ABAD,JOHOR BAHRU,JOHOR,1.4867153413200336,103.76014665800007,2175,52b857ed498e59b00fe3c4ba,老字号新山粿條仔,1.4866469233285968,103.76704246531584,767,4bf58dd8d48988d145941735,Chinese Restaurant
TAMAN ABAD,JOHOR BAHRU,JOHOR,1.4867153413200336,103.76014665800007,2175,4d29558c888af04d8a98ceaf,Big Bowl  大碗魚肉麵粉粿,1.4807317778008433,103.76584998284888,920,4bf58dd8d48988d145941735,Chinese Restaurant
TAMAN ABAD,JOHOR BAHRU,JOHOR,1.4867153413200336,103.76014665800007,2175,4d1ad23e31af236a2b380d17,Grand Beef Restaurant 牛肉王之家,1.4905944553342485,103.76313935521476,545,4bf58dd8d48988d145941735,Chinese Restaurant
ABAD JAYA 1,JOHOR BAHRU,JOHOR,1.4823179004375255,103.75674818237505,1811,4ec7de49e5fa232a759bee4b,Restoran Ho Meng Kee 何明记云吞面,1.4870129523011464,103.76013298106643,644,4bf58dd8d48988d145941735,Chinese Restaurant
BANDAR SKUDAI TENGAH,GELANG PATAH,JOHOR,1.5378491716666922,103.66129917141672,2233,4d649907072a6ea8d004f44d,新天茶餐室,1.5419422126718767,103.657230327115,642,4bf58dd8d48988d145941735,Chinese Restaurant
BANDAR SKUDAI TENGAH,GELANG PATAH,JOHOR,1.5378491716666922,103.66129917141672,2233,58a5351cebf028369d70619a,Ban Heong Seng 万香城,1.538593,103.669876,958,4bf58dd8d48988d145941735,Chinese Restaurant
SENAI BARU,KULAI,JOHOR,1.6207717716860737,103.66319458737215,3917,4d649c688216236a708c0680,瑞记海南鸡饭,1.6148907741395817,103.65895021510588,807,4bf58dd8d48988d145941735,Chinese Restaurant
BUKIT CHAGAR,JOHOR BAHRU,JOHOR,1.4694537718000371,103.76328550050005,2358,4c233fbe13c00f4778ac88de,Kai Xuan Chinese Restaurant 凯旋,1.4606238384945105,103.76222897606407,989,4bf58dd8d48988d145941735,Chinese Restaurant
BUKIT MEWAH,PULAI,JOHOR,1.5187846440816488,103.68423692571432,3821,53ddd4c0498ef53400de652d,Restoran Yeoh's Klang Bak Kut Teh 杨氏肉骨茶,1.5206413979086266,103.67932564513791,584,4bf58dd8d48988d145941735,Chinese Restaurant
BUKIT MEWAH,PULAI,JOHOR,1.5187846440816488,103.68423692571432,3821,4fec3f97e4b0e53ef2375880,Ing Kee 荣记茶餐室,1.5134099563200425,103.68936324722044,826,4bf58dd8d48988d145941735,Chinese Restaurant
KOTA KULAI,KULAI,JOHOR,1.6759231611363945,103.56901561722736,2573,4ec790298b81dcfdc385e9c4,Tropical Garden 嘉宾海鲜酒楼,1.6688830778759385,103.57026347087287,795,4bf58dd8d48988d145941735,Chinese Restaurant
PEKAN KELAPA SAWIT TIMOR,KULAI,JOHOR,1.6697152215238449,103.53472703047623,1669,4cd2b85ed5d7a1cdf1c77966,满庭芳,1.6728355038963396,103.52837027470468,788,4bf58dd8d48988d145941735,Chinese Restaurant
BANDAR SENAI UTARA,KULAI,JOHOR,1.604728644263191,103.64458742421058,2542,520c63db11d26438a3206e81,士乃鸭王,1.6103821792219035,103.64722395271481,694,4bf58dd8d48988d145941735,Chinese Restaurant
BANDAR SENAI TENGAH,KULAI,JOHOR,1.6022656672273017,103.64357473322731,1621,4e37d51bd4c0dc7ad2e94ede,Kim M Long Restaurant 金龍飯店,1.5943062599982134,103.64645773490393,942,4bf58dd8d48988d145941735,Chinese Restaurant
LUMBA KUDA,JOHOR BAHRU,JOHOR,1.4669703370697988,103.76644004379074,3069,4c70e1e3b5a5236ab3b25152,Kam Long Curry Fish Head 金龙咖哩鱼头,1.4592460942997163,103.76478162779553,879,4bf58dd8d48988d145941735,Chinese Restaurant
LUMBA KUDA,JOHOR BAHRU,JOHOR,1.4669703370697988,103.76644004379074,3069,4cba8704adcd548133e523a2,Restoran Shang Ji 上记,1.4611038073842997,103.76738437776231,661,4bf58dd8d48988d145941735,Chinese Restaurant
LUMBA KUDA,JOHOR BAHRU,JOHOR,1.4669703370697988,103.76644004379074,3069,57aabb5f498e9672988d4ce6,Souper Tang 湯師父,1.4619159523081169,103.76388870635023,630,4bf58dd8d48988d145941735,Chinese Restaurant
LUMBA KUDA,JOHOR BAHRU,JOHOR,1.4669703370697988,103.76644004379074,3069,4dc38ca52271f27050fda97d,Restoran Hwa Mei 华美肉骨茶,1.4607025440755532,103.76749526052276,707,4bf58dd8d48988d145941735,Chinese Restaurant
TAMAN JAYA,GELANG PATAH,JOHOR,1.5674515067961998,103.67695287757964,4209,5c54fd0e1cf2e1002c085714,Taste of Grandmother 外婆的味道,1.5594107,103.67402,952,4bf58dd8d48988d145941735,Chinese Restaurant
SRI PULAI,KULAI,JOHOR,1.5519428128906536,103.64959145975004,5133,4cfb247fd8468cfa9ef7f26b,Restoran Sin Hai Cheng 新海珍鸭肉面,1.5464906,103.6564,970,4bf58dd8d48988d145941735,Chinese Restaurant
SRI PULAI,KULAI,JOHOR,1.5519428128906536,103.64959145975004,5133,4d01bf8e57e2a0934252d236,Skudai Duck Mee 士古来鸭肉,1.546562672688748,103.65657239890821,980,4bf58dd8d48988d145941735,Chinese Restaurant
SRI SKUDAI,GELANG PATAH,JOHOR,1.5370980567843466,103.65289732621571,4352,50813e5ee4b05e9133bf1f51,Restoran Hj.Sharin Low Grand,1.5416721722330136,103.6458106840176,938,4bf58dd8d48988d145941735,Chinese Restaurant
KEBANGSAAN,GELANG PATAH,JOHOR,1.5381065117097117,103.62930303500004,3418,4d8d3982d4ec8cfa48c95489,富满城美味饮食中心,1.5403116655514524,103.62935926632929,245,4bf58dd8d48988d145941735,Chinese Restaurant
LAKSAMANA TUTA,GELANG PATAH,JOHOR,1.5243148734138148,103.67072226658622,3984,5715c51f498ecec9c92933b5,大中华蒸汽火锅 Restoran Da Zhong Hwa,1.5162435238833183,103.67043161886164,899,4bf58dd8d48988d145941735,Chinese Restaurant
LAKSAMANA TUTA,GELANG PATAH,JOHOR,1.5243148734138148,103.67072226658622,3984,4d0de05feea9b60c9bef603f,Restoran Pekin Sutera 五福北京城,1.5174355244371842,103.67025847648847,767,4bf58dd8d48988d145941735,Chinese Restaurant
LAKSAMANA TUTA,GELANG PATAH,JOHOR,1.5243148734138148,103.67072226658622,3984,4cecaadb62ef6dcb3fdeed59,八哩半大家发鸭肉 Kedai Masakan Itik Taika Huat (Kedai Masakan Itik Taika Huat),1.5244292991961697,103.67215847817141,160,4bf58dd8d48988d145941735,Chinese Restaurant
LAKSAMANA TUTA,GELANG PATAH,JOHOR,1.5243148734138148,103.67072226658622,3984,4de9d73645dd3993a87c4d53,Restoran G. Cheong Fun  猪肠粉小食店,1.5205119729939958,103.66271512383742,986,4bf58dd8d48988d145941735,Chinese Restaurant
LAKSAMANA TUTA,GELANG PATAH,JOHOR,1.5243148734138148,103.67072226658622,3984,4be54ffacf200f47d90b133c,Meng Meng Roasted Duck 阿明帝王鸭,1.5165239723766117,103.66966455339376,875,4bf58dd8d48988d145941735,Chinese Restaurant
LAKSAMANA TUTA,GELANG PATAH,JOHOR,1.5243148734138148,103.67072226658622,3984,4d72db91f7c38cfabf72ae3d,Hwa Mui Kopitiam 华美茶餐厅,1.5162897832742848,103.66853626543177,925,4bf58dd8d48988d145941735,Chinese Restaurant
NAKHODA TUTA,GELANG PATAH,JOHOR,1.5169394391064122,103.67070488372349,4601,4e0f0058b61c3fe47808f7e9,Foo Soon Bak Kut Teh 富顺肉骨茶饭店,1.5149142890334044,103.66794564390446,380,4bf58dd8d48988d145941735,Chinese Restaurant
NAKHODA TUTA,GELANG PATAH,JOHOR,1.5169394391064122,103.67070488372349,4601,5ce21f3baa6c950039e514e6,蜀大侠火锅Shudaxia Hotpot,1.5144426000000002,103.66904,334,4bf58dd8d48988d145941735,Chinese Restaurant
BUKIT SERENE,PULAI,JOHOR,1.4794000739756397,103.72946149831706,1577,4d173eff6d103704acb235bd,海滨海鲜楼,1.4747821883780488,103.72396443392894,799,4bf58dd8d48988d145941735,Chinese Restaurant
TAMBATAN,PULAI,JOHOR,1.4724690100769418,103.72847532216787,2051,4e39397eae60f589a5d8780e,Ming Court,1.4649620420032854,103.73005648397604,853,4bf58dd8d48988d145941735,Chinese Restaurant
TAMBATAN,PULAI,JOHOR,1.4724690100769418,103.72847532216787,2051,4e7a700fd22dbf60147ed63a,TaangShifu 汤师父,1.4647985999883342,103.72793197631836,855,4bf58dd8d48988d145941735,Chinese Restaurant
TAMBATAN,PULAI,JOHOR,1.4724690100769418,103.72847532216787,2051,52ea448311d23d400c350183,Cathay Restaurant 新國泰冷氣酒家,1.46453499962199,103.72667587009524,905,4bf58dd8d48988d145941735,Chinese Restaurant
PUCUNG PERLING,PULAI,JOHOR,1.4941176661951556,103.68407503319513,1730,4def44d2e4cdcd6c3f251d2e,Restoran Liang Chen,1.4939115191756045,103.67867025741889,601,4bf58dd8d48988d145941735,Chinese Restaurant
TAMAN SUTERA,PULAI,JOHOR,1.4798233999000263,103.69389504977148,4875,545708ee498ed7a6b8ece479,Kang Bee Hong 慷美峰烧腊鸡饭小厨,1.482108208403892,103.68552667586744,965,4bf58dd8d48988d145941735,Chinese Restaurant
BUKIT INDAH,PULAI,JOHOR,1.4840931096712695,103.64868473746584,5483,4da56bc0cda1c55f75557be0,Restoran Pearls Park 珍珠坊美食阁,1.4836679459104598,103.6475735928739,132,4bf58dd8d48988d145941735,Chinese Restaurant
BUKIT INDAH,PULAI,JOHOR,1.4840931096712695,103.64868473746584,5483,4f6591a5e4b0aa8f681fe517,Hong Kong Street Restaurant 尖沙咀港式烧腊茶餐厅,1.4769481376544291,103.65067383493748,825,4bf58dd8d48988d145941735,Chinese Restaurant
BUKIT INDAH,PULAI,JOHOR,1.4840931096712695,103.64868473746584,5483,54520ef7498ef875452172f0,DRAGON-i 龙的传人,1.48080508958797,103.65615720837141,908,4bf58dd8d48988d145941735,Chinese Restaurant
NUSA INDAH,PULAI,JOHOR,1.4760826230000343,103.65134189461668,2585,5270e81b11d237320249da93,Restoran Uncle Pou Wok 补锅佬菜馆,1.4687422400430703,103.64805505444845,895,4bf58dd8d48988d145941735,Chinese Restaurant
NUSA INDAH,PULAI,JOHOR,1.4760826230000343,103.65134189461668,2585,586f415c45c3ed5c16fd6fcd,Spiced Malahotpot 香辣辣麻辣香锅,1.4800259514323413,103.65757565816958,820,4bf58dd8d48988d145941735,Chinese Restaurant
NUSA INDAH,PULAI,JOHOR,1.4760826230000343,103.65134189461668,2585,5048bbbbe4b0c22675748f89,亿家海鲜 Yi Jia Seafood,1.4686213781890425,103.65226332963388,836,4bf58dd8d48988d145941735,Chinese Restaurant
NUSA INDAH,PULAI,JOHOR,1.4760826230000343,103.65134189461668,2585,5172c47fe4b0158bdd024047,Ding Seng Fresh Frog Porridge 鼎盛砂煲田鸡王,1.4806504704737196,103.65762707615336,864,4bf58dd8d48988d145941735,Chinese Restaurant
BELIBIS PERLING,PULAI,JOHOR,1.4856518522473434,103.6789377230861,3627,4dd246621838a75196569cab,Sin Chen Restaurant 新城小食馆,1.4825981552966516,103.68089624971815,403,4bf58dd8d48988d145941735,Chinese Restaurant
BELIBIS PERLING,PULAI,JOHOR,1.4856518522473434,103.6789377230861,3627,4c5125c09a2d76b09f3262db,Restoran Leong Seng Huat 两成发茶餐室,1.4834333188020403,103.68055393919168,305,4bf58dd8d48988d145941735,Chinese Restaurant
BELIBIS PERLING,PULAI,JOHOR,1.4856518522473434,103.6789377230861,3627,4dce7cc27d8b975f18cf02fb,Restoran Perling Soon Lee,1.4811142846002898,103.6825718832005,647,4bf58dd8d48988d145941735,Chinese Restaurant
KAMPONG UNGKU MOHSIN,JOHOR BAHRU,JOHOR,1.5083360023928871,103.7365068234822,2538,4e0ff6b4c65b4a49f3004cc7,Ungku Mohsin 干捞面,1.5135032729497575,103.74035055868241,716,4bf58dd8d48988d145941735,Chinese Restaurant
RAWA PERLING,PULAI,JOHOR,1.4766828797206195,103.6724055534412,2507,509f52eae4b0bbf776d905c8,Restaurant Changman 常满,1.4813564278047069,103.66622878020813,862,4bf58dd8d48988d145941735,Chinese Restaurant
RAWA PERLING,PULAI,JOHOR,1.4766828797206195,103.6724055534412,2507,4cd37c0d607a6dcb41ec0f54,Soon Huat Bak Kut Teh 顺发肉骨茶,1.479545,103.664855,898,4bf58dd8d48988d145941735,Chinese Restaurant
RAWA PERLING,PULAI,JOHOR,1.4766828797206195,103.6724055534412,2507,4fcb5d68e4b0ee2f3ab23ec1,Restoran Kim Siang 金香烧腊面食饭店,1.4792348490696314,103.66494663849515,877,4bf58dd8d48988d145941735,Chinese Restaurant
TAMAN SRI SETIA,JOHOR BAHRU,JOHOR,1.4727733852424467,103.77005958366672,1015,4d42f93d714a224b4226e9e8,Restoran Woon Kiang 汶強粿條仔 (Restoran Woon Kiang),1.4723926972083567,103.77770262153471,851,4bf58dd8d48988d145941735,Chinese Restaurant
TAMAN SRI SETIA,JOHOR BAHRU,JOHOR,1.4727733852424467,103.77005958366672,1015,50e8223ce4b0b1ba6cebdeab,Pelangi City 彩虹城家乡小食,1.472238481392459,103.7744796957175,495,4bf58dd8d48988d145941735,Chinese Restaurant
TAMAN SRI SETIA,JOHOR BAHRU,JOHOR,1.4727733852424467,103.77005958366672,1015,4e72e60c7d8b051837b66579,Soon Mee 彩虹餐廳,1.4796047406194,103.77425364504805,892,4bf58dd8d48988d145941735,Chinese Restaurant
TAMAN SRI SETIA,JOHOR BAHRU,JOHOR,1.4727733852424467,103.77005958366672,1015,504b5dcde4b062c86363afa4,老江一品粿條湯 LJ Noodle House,1.4802715627084082,103.77377844332086,931,4bf58dd8d48988d145941735,Chinese Restaurant
TAMAN SRI SETIA,JOHOR BAHRU,JOHOR,1.4727733852424467,103.77005958366672,1015,4d0f3a03c3dc370451393174,欣運火鍋海鮮之家,1.4803552543368308,103.77379416987594,940,4bf58dd8d48988d145941735,Chinese Restaurant
TAMAN SRI SETIA,JOHOR BAHRU,JOHOR,1.4727733852424467,103.77005958366672,1015,4ce8a74dfe90a35d2750440e,Soon Chiang 順江肉骨茶,1.4808604858645953,103.76671439663141,974,4bf58dd8d48988d145941735,Chinese Restaurant
TAMAN SRI SETIA,JOHOR BAHRU,JOHOR,1.4727733852424467,103.77005958366672,1015,4d8ca5be1d06b1f724991d3b,蓝天猪脚醋,1.47858,103.775453,882,4bf58dd8d48988d145941735,Chinese Restaurant
TAMAN SRI SETIA,JOHOR BAHRU,JOHOR,1.4727733852424467,103.77005958366672,1015,4e997b787ee571e1ee9a502f,Restoran Come & Eat 三楼吃又来潮洲粥,1.4728458276377825,103.77836148457628,923,4bf58dd8d48988d145941735,Chinese Restaurant
BAKAR BATU,JOHOR BAHRU,JOHOR,1.4843161052403326,103.78744011423255,3827,4ccd2291ba79a1cdd3d93fcb,Restoran Ah Meng 阿明家乡三楼干米粉,1.4911778788923855,103.78567317703943,788,4bf58dd8d48988d145941735,Chinese Restaurant
BAKAR BATU,JOHOR BAHRU,JOHOR,1.4843161052403326,103.78744011423255,3827,4c9cc93e7c096dcb7bb2c4d1,Restoran Makanan Laut KEONG KEE 强记海鲜饭店,1.4913207041230614,103.78675849941416,783,4bf58dd8d48988d145941735,Chinese Restaurant
BANDAR MASAI TENGAH,PASIR GUDANG,JOHOR,1.4900846780000283,103.88356406900006,5341,4d53ff072f638cfa8c2f696a,快乐园肉骨茶,1.4859964266469772,103.88262951276012,466,4bf58dd8d48988d145941735,Chinese Restaurant
PASIR GUDANG,PASIR GUDANG,JOHOR,1.4786042466316172,103.90389117500006,6974,5551a59e498e0fc0d30044f7,Nasi Ayam dan Itik House,1.4830541937773325,103.89938088288834,705,4bf58dd8d48988d145941735,Chinese Restaurant
JOHOR JAYA TIMOR,PASIR GUDANG,JOHOR,1.5361541337333675,103.81055026980007,3461,4cdf3e4b78ddf04dcbd49f98,怡保河粉加哩面,1.5410017334131283,103.80484705327177,833,4bf58dd8d48988d145941735,Chinese Restaurant
JOHOR JAYA TIMOR,PASIR GUDANG,JOHOR,1.5361541337333675,103.81055026980007,3461,4d74c348e278f04d08645bb8,Restoran Hai Ji 海记松鱼头,1.5400272360898963,103.80508485257644,745,4bf58dd8d48988d145941735,Chinese Restaurant
JOHOR JAYA TIMOR,PASIR GUDANG,JOHOR,1.5361541337333675,103.81055026980007,3461,4d53d530bdbea1cde2fddf92,Tu Lou Hakka Food 土楼客家檑茶,1.5404221715834032,103.8053201796938,751,4bf58dd8d48988d145941735,Chinese Restaurant
JOHOR JAYA TIMOR,PASIR GUDANG,JOHOR,1.5361541337333675,103.81055026980007,3461,4c67c0a5f7a80f474dd2a17a,Restoran Hong Kong Boy 香港仔美食中心,1.5403094883187678,103.80309738276866,949,4bf58dd8d48988d145941735,Chinese Restaurant
JOHOR JAYA TIMOR,PASIR GUDANG,JOHOR,1.5361541337333675,103.81055026980007,3461,4dae6d5393a0096fbaa01e12,Meng Meng Roasted Duck 阿明帝皇鸭,1.5415542352473124,103.8043978286412,911,4bf58dd8d48988d145941735,Chinese Restaurant
JOHOR JAYA TENGAH,PASIR GUDANG,JOHOR,1.5436634178919255,103.80936186254058,2282,4d859d95f1e56ea8b0628e8a,Makanan Hakka Tai Chong 士乃大众苦瓜汤,1.540508823831321,103.80111231590288,982,4bf58dd8d48988d145941735,Chinese Restaurant
JOHOR JAYA TENGAH,PASIR GUDANG,JOHOR,1.5436634178919255,103.80936186254058,2282,4cce4a06063a721e299d999a,Restoran Very Nice 水饺大王咖哩面,1.542367830886397,103.80276197544514,748,4bf58dd8d48988d145941735,Chinese Restaurant
FLAT PERKASA 'B' TUTA,GELANG PATAH,JOHOR,1.50830680172731,103.65526739868187,3553,4d3d5f3d84d46ea898b4055d,Restoran You Kee 有记XO烧腊之家,1.5165829386062333,103.65394273777528,933,4bf58dd8d48988d142941735,Asian Restaurant
JOHOR JAYA TENGAH,PASIR GUDANG,JOHOR,1.5436634178919255,103.80936186254058,2282,4d9d2b4fa1ec8cfa10e1fd49,Restoran Fong Yem 丰源美食中心,1.5422710080298845,103.80177268160999,858,4bf58dd8d48988d145941735,Chinese Restaurant
PANDAN,PASIR GUDANG,JOHOR,1.520904992243265,103.78082978644146,3643,50cc7516e4b044ef66bbc320,好一家海鲜火锅餐厅,1.521118537605581,103.78453255035114,412,4bf58dd8d48988d145941735,Chinese Restaurant
PANDAN,PASIR GUDANG,JOHOR,1.520904992243265,103.78082978644146,3643,4d15c83b8312236a811e54ba,好好火锅 Ho Ho Steamboat,1.5211115250989342,103.78451492397579,410,4bf58dd8d48988d145941735,Chinese Restaurant
PANDAN,PASIR GUDANG,JOHOR,1.520904992243265,103.78082978644146,3643,4d6b35d99f4b6dcb63dc6d28,Bumble Bees Cafe,1.5251198538956168,103.78717231578452,847,4bf58dd8d48988d145941735,Chinese Restaurant
BANDAR PLENTONG SELATAN,PASIR GUDANG,JOHOR,1.5257896217895084,103.8195043034211,4325,4d83529c81fdb1f77617e4bf,"Plentong, Curry Mee + Fried Taufu Stall",1.521657,103.82441,713,4bf58dd8d48988d145941735,Chinese Restaurant
TAMBATAN,PULAI,JOHOR,1.4724690100769418,103.72847532216787,2051,5246a80511d23c612ec4c48a,Tea Garden,1.4648356326086882,103.72760350955187,855,4bf58dd8d48988d142941735,Asian Restaurant
SRI PELANGI,JOHOR BAHRU,JOHOR,1.4770330782631846,103.77338801670182,3579,4cfdc4a0c6cca35d93ac9832,Restoran CM 亚明潮式鱼汤,1.4817245933597891,103.77341150602496,522,4bf58dd8d48988d145941735,Chinese Restaurant
SRI PELANGI,JOHOR BAHRU,JOHOR,1.4770330782631846,103.77338801670182,3579,4e4e4a3418a8af30fd740920,Restoran Ah Kaw 亚九咖喱鱼头店,1.4817595616139334,103.7738781005265,528,4bf58dd8d48988d145941735,Chinese Restaurant
SRI PELANGI,JOHOR BAHRU,JOHOR,1.4770330782631846,103.77338801670182,3579,4d392f571a57a14345308cf3,Ke Ren Lai 客家小厨•客人来,1.4822897946715048,103.77251587955463,593,4bf58dd8d48988d145941735,Chinese Restaurant
SRI PELANGI,JOHOR BAHRU,JOHOR,1.4770330782631846,103.77338801670182,3579,4cf6283e1cfea09354f4dd39,（夜市）金龙咖哩鱼头（阿仔）,1.4826434235661894,103.7753723095962,662,4bf58dd8d48988d145941735,Chinese Restaurant
SRI PELANGI,JOHOR BAHRU,JOHOR,1.4770330782631846,103.77338801670182,3579,4dd9e96252b1a5c64488a1a7,天天茶餐室,1.4819399616865891,103.77303597692809,547,4bf58dd8d48988d145941735,Chinese Restaurant
SRI PELANGI,JOHOR BAHRU,JOHOR,1.4770330782631846,103.77338801670182,3579,4d4150757a516ea85ca3c282,Foon Yew Laksa 宽中辣沙,1.4733687141181968,103.78012668558577,853,4bf58dd8d48988d145941735,Chinese Restaurant
SRI PELANGI,JOHOR BAHRU,JOHOR,1.4770330782631846,103.77338801670182,3579,50ff7f25e4b08dc4f430a049,Lucky Corner Chicken Rice Cafe,1.4830518406237323,103.7753581037216,704,4bf58dd8d48988d145941735,Chinese Restaurant
MOUNT AUSTIN,TEBRAU,JOHOR,1.5556473972237104,103.77901471350006,2477,5be6d3abccad6b002c8fe2ee,Hoobaa Hotpot 火爆锅,1.5605737,103.77445999999999,746,4bf58dd8d48988d145941735,Chinese Restaurant
TAMAN KEBUN TEH,JOHOR BAHRU,JOHOR,1.4959354243809837,103.76040791914292,3429,4c9ae65fa004a1cdd3844c6e,Ah Choon Yong Tau Foo 美乐酿豆腐,1.4946087260081309,103.76558079443346,594,4bf58dd8d48988d145941735,Chinese Restaurant
TAMAN KEBUN TEH,JOHOR BAHRU,JOHOR,1.4959354243809837,103.76040791914292,3429,4d72e5885f0037045a5ce8a0,Restoran Fook Sing 福星茶餐室,1.4927578205369367,103.76743532732372,858,4bf58dd8d48988d145941735,Chinese Restaurant
SRI TEBRAU (1),JOHOR BAHRU,JOHOR,1.4902809016316134,103.77546182857901,2992,4ce0e3c078ddf04dd2b5a898,Yong Seng Mee Hoon Kueh 荣成面粉果,1.482312959052725,103.77519894855284,887,4bf58dd8d48988d145941735,Chinese Restaurant
SRI TEBRAU (1),JOHOR BAHRU,JOHOR,1.4902809016316134,103.77546182857901,2992,4cfadc52c6cca35de0008932,大顺美食中心,1.4861483871420869,103.76883739526993,868,4bf58dd8d48988d145941735,Chinese Restaurant
SRI TEBRAU (1),JOHOR BAHRU,JOHOR,1.4902809016316134,103.77546182857901,2992,50a921d3e4b0bb7b5be3fb8d,Restoran Sing 阿勝美食中心,1.4839697736759434,103.7721949446366,791,4bf58dd8d48988d145941735,Chinese Restaurant
SRI TEBRAU (1),JOHOR BAHRU,JOHOR,1.4902809016316134,103.77546182857901,2992,5ba64532d41bb7002cd0180d,Ho Ho Steamboat 好好海鮮火鍋,1.4977168,103.77698000000001,844,4bf58dd8d48988d145941735,Chinese Restaurant
TAMAN MAJU JAYA,JOHOR BAHRU,JOHOR,1.4818227031379632,103.76968094617243,3060,4bdbd9132a3a0f470ff1b0b6,Kedai Makanan Kee Kim Huat 纪金发茶餐室,1.4872090850233808,103.76880669489763,607,4bf58dd8d48988d145941735,Chinese Restaurant
PELANGI,JOHOR BAHRU,JOHOR,1.4822781127600302,103.77536296224005,2445,5185ed22498e98b935fb7741,旺角雞飯咖啡屋,1.4830641034964216,103.7752832055016,87,4bf58dd8d48988d145941735,Chinese Restaurant
PERWIRA TUTA,GELANG PATAH,JOHOR,1.5288469072083668,103.66610882154171,3469,4ce3db6b05f7a0935495a228,Maedo Ying Bin Restaurant 美都海鲜酒楼,1.525810093565624,103.66553848722548,343,4bf58dd8d48988d145941735,Chinese Restaurant
PERWIRA TUTA,GELANG PATAH,JOHOR,1.5288469072083668,103.66610882154171,3469,4cc90f6ebcb1b1f70e130d8a,新北京起骨海南鸡饭,1.52988852275472,103.66404888479471,256,4bf58dd8d48988d145941735,Chinese Restaurant
PERWIRA TUTA,GELANG PATAH,JOHOR,1.5288469072083668,103.66610882154171,3469,4d967d7197d06ea8cff3040b,Pa Li Pah 八哩半砂褒肉骨茶,1.5241265161725852,103.67203210255389,842,4bf58dd8d48988d145941735,Chinese Restaurant
SETANGGI,JOHOR BAHRU,JOHOR,1.5037698112963254,103.77067555829632,2516,5cc6aca9f5e9d7002c60d0f7,HoMinSan 好面善,1.5006709999999999,103.778708,958,4bf58dd8d48988d145941735,Chinese Restaurant
DESA JAYA,TEBRAU,JOHOR,1.558184585894757,103.8046281886316,2746,4d5cae3b1ef2f04d7eb6f7cd,心圆美食坊,1.5561368788158407,103.80410594090924,235,4bf58dd8d48988d145941735,Chinese Restaurant
DESA JAYA,TEBRAU,JOHOR,1.558184585894757,103.8046281886316,2746,51a5f7f7498ea140767e90e3,Catfish King 泥鳅王肉骨茶,1.5625307434549252,103.80031323829235,681,4bf58dd8d48988d145941735,Chinese Restaurant
TAMAN SIANTAN,PULAI,JOHOR,1.5123213960000306,103.69837172215007,2725,4d970f27a2c654812182ce53,光辉煮炒,1.5114554446021686,103.69241795843337,669,4bf58dd8d48988d145941735,Chinese Restaurant
KAMPONG PAHANG,PULAI,JOHOR,1.4571454692174164,103.76110996060874,782,4b84a5a9f964a520a43f31e3,Restoran Hua Mui 华美茶餐室,1.4573003052754965,103.76424594567824,349,4bf58dd8d48988d145941735,Chinese Restaurant
KAMPONG PAHANG,PULAI,JOHOR,1.4571454692174164,103.76110996060874,782,4c8334dbe602b1f7d44ba47a,Restoran Ya Wang 鸭皇药材烧腊大王,1.4580781762105686,103.7643480838035,375,4bf58dd8d48988d145941735,Chinese Restaurant
HANG TUAH,GELANG PATAH,JOHOR,1.529357885387136,103.66157833422585,5327,4d23c56e2ac6f04d91ec2f45,Restoran Lapan Dua Dua 822 超级鸭王,1.5209963137532831,103.66015714984344,944,4bf58dd8d48988d145941735,Chinese Restaurant
HANG TUAH,GELANG PATAH,JOHOR,1.529357885387136,103.66157833422585,5327,4dba35d84df0cac21aead64f,永新鲍鱼粿條,1.5218335338830538,103.6629418854832,851,4bf58dd8d48988d145941735,Chinese Restaurant
HANG TUAH,GELANG PATAH,JOHOR,1.529357885387136,103.66157833422585,5327,4e09c78362e100e5817ecfcf,Restoran Ban Kee 万记（吉隆坡）福建面,1.5220927955139527,103.66416772900708,858,4bf58dd8d48988d145941735,Chinese Restaurant
TAMAN GEMBIRA,TEBRAU,JOHOR,1.5243982290571767,103.74664725742862,1599,4dc33742fa76d685cda8936f,丰盛咖啡店,1.5229819367764994,103.75424075568205,859,4bf58dd8d48988d145941735,Chinese Restaurant
PERMAS 2,PASIR GUDANG,JOHOR,1.5112294350540778,103.82371746027029,2713,4e1cdde614955b99c411d076,Uncle Foo,1.5123809429355366,103.81983668903973,450,4bf58dd8d48988d145941735,Chinese Restaurant
TAMAN SELATAN,KULAI,JOHOR,1.6609759059091205,103.59249434068188,3410,4cc02b6c021ca143c570600c,Restoran Sze Hwa Bak Kut Teh (古来世华肉骨茶),1.6681965196152542,103.58716514243022,998,4bf58dd8d48988d145941735,Chinese Restaurant
TAMAN SELATAN,KULAI,JOHOR,1.6609759059091205,103.59249434068188,3410,50d84435e4b0bc5a6506c0c3,香满城海鮮樓 Restoran Xiang Mann,1.6659807097282695,103.59101831329599,580,4bf58dd8d48988d145941735,Chinese Restaurant
TAMAN SELATAN,KULAI,JOHOR,1.6609759059091205,103.59249434068188,3410,4dc1428322713750ba7811dc,海外天海鲜大饭店 Restaurant Horizon,1.666039820689473,103.59261496090237,563,4bf58dd8d48988d145941735,Chinese Restaurant
TAMAN SELATAN,KULAI,JOHOR,1.6609759059091205,103.59249434068188,3410,4cd7e44e51fc8cfade4de65d,香满城海鲜楼,1.6659693902178825,103.59118532601177,574,4bf58dd8d48988d145941735,Chinese Restaurant
BUKIT KEMPAS,PULAI,JOHOR,1.5362919892222573,103.68965066113894,3440,4f099702e4b0ca3a5d6dbe40,63咖哩鱼头海鲜茶餐室 Kedai Makanan Dan Minuman Enam Puluh Tiga,1.5409627495236724,103.68324103684276,882,4bf58dd8d48988d145941735,Chinese Restaurant
BUKIT KEMPAS,PULAI,JOHOR,1.5362919892222573,103.68965066113894,3440,558383c8498e6200ac6ef397,Evergreen 绿园,1.5433103000000001,103.686516,855,4bf58dd8d48988d145941735,Chinese Restaurant
BUKIT KEMPAS,PULAI,JOHOR,1.5362919892222573,103.68965066113894,3440,4c8e05dcad70a14308b8850f,黄记饭店,1.5413750643055733,103.68685619809956,645,4bf58dd8d48988d145941735,Chinese Restaurant
BUKIT KEMPAS,PULAI,JOHOR,1.5362919892222573,103.68965066113894,3440,54ae7d95498ee8c2e08819cd,Restoran Uncle Pou Wok 補鑊佬菜館,1.5417056123440438,103.68738291524271,653,4bf58dd8d48988d145941735,Chinese Restaurant
BUKIT KEMPAS,PULAI,JOHOR,1.5362919892222573,103.68965066113894,3440,4db8e6b56e818f67a9b3f70d,一鱼肉骨茶,1.541539,103.686908,659,4bf58dd8d48988d145941735,Chinese Restaurant
HULUBALANG TUTA,GELANG PATAH,JOHOR,1.5083616976364007,103.66314938404554,2625,4f6ae46ee4b0d6df8ecdc846,蒸好味,1.5164144713926275,103.6669973137077,993,4bf58dd8d48988d145941735,Chinese Restaurant
HULUBALANG TUTA,GELANG PATAH,JOHOR,1.5083616976364007,103.66314938404554,2625,585b94b37d0f6d0aa2ffa029,Hin Hock Bak Kut Teh兴福肉骨茶 淡杯烫鱼第一家,1.509751,103.656634,741,4bf58dd8d48988d145941735,Chinese Restaurant
RINTING MERANTI,PASIR GUDANG,JOHOR,1.4895978756000319,103.87767017340006,2792,4bd6cd0b4e32d13a0616c380,Restoran Foo Too 富都,1.485827585065007,103.87553205017164,482,4bf58dd8d48988d145941735,Chinese Restaurant
JOHOR JAYA SELATAN,PASIR GUDANG,JOHOR,1.529178235404289,103.80661511193622,1952,4d57cc45e319a1cd71c90834,Sunny Wong Fish Head Soup 三楼不夜天鱼头汤,1.5307488706109356,103.7979578057245,979,4bf58dd8d48988d145941735,Chinese Restaurant
JOHOR JAYA SELATAN,PASIR GUDANG,JOHOR,1.529178235404289,103.80661511193622,1952,4da19931c6e96ea87c9cc35d,Restoran Daiman Pekin 北京云华宫,1.5267596361869489,103.80811683240435,316,4bf58dd8d48988d145941735,Chinese Restaurant
JOHOR JAYA SELATAN,PASIR GUDANG,JOHOR,1.529178235404289,103.80661511193622,1952,4cd0e1a33e63721edfd9a0cc,金星美食园,1.535762,103.800859,973,4bf58dd8d48988d145941735,Chinese Restaurant
TAMAN MEGAH RIA,PASIR GUDANG,JOHOR,1.4889907932603113,103.8496536566302,2695,51a2adcc498ec2b2412976ef,Wang Wang Kopitiam,1.4907713300233378,103.84861496676668,229,4bf58dd8d48988d145941735,Chinese Restaurant
RINTING CENDANA,PASIR GUDANG,JOHOR,1.4944270926956855,103.86745396893484,2747,53f6dc83498ecdca24d34c83,有有福州手工面,1.4907778067886008,103.86051067716384,872,4bf58dd8d48988d145941735,Chinese Restaurant
RINTING BALAU,PASIR GUDANG,JOHOR,1.488585784322069,103.8621059411187,2162,4e97bbc16da163160351c645,Restoran Chan Zoon,1.4908806850568637,103.86888518309452,796,4bf58dd8d48988d145941735,Chinese Restaurant
TAMAN MOLEK,PASIR GUDANG,JOHOR,1.5305189735098281,103.78967985288237,2888,4d5a9ef3fe7c224b8ce584b5,Tai Son Seafood Restaurant 太子楼,1.5275586199272595,103.78937232696413,331,4bf58dd8d48988d145941735,Chinese Restaurant
TAMAN MOLEK,PASIR GUDANG,JOHOR,1.5305189735098281,103.78967985288237,2888,4cccf3a52dc437047e57cb08,Kwang Hoi 光辉卤鸭饭面粿條仔,1.5341549491269837,103.79297952482729,546,4bf58dd8d48988d145941735,Chinese Restaurant
TAMAN MOLEK,PASIR GUDANG,JOHOR,1.5305189735098281,103.78967985288237,2888,4bca9c01fb84c9b6d59b1d3e,Restoran Hou Kee 何记纯正西刀鱼圆,1.5264646532365047,103.79109637559313,478,4bf58dd8d48988d145941735,Chinese Restaurant
TAMAN MOLEK,PASIR GUDANG,JOHOR,1.5305189735098281,103.78967985288237,2888,4d6244d75b276dcb0b452dc6,Restoran Bai Her 百合小菜馆,1.5276622642832622,103.792426583685,441,4bf58dd8d48988d145941735,Chinese Restaurant
TAMAN MOLEK,PASIR GUDANG,JOHOR,1.5305189735098281,103.78967985288237,2888,4bb6e5492f70c9b6bb228630,Let's Eat Restaurant (为食坊),1.5293686891438367,103.79289348289811,379,4bf58dd8d48988d145941735,Chinese Restaurant
TAMAN MOLEK,PASIR GUDANG,JOHOR,1.5305189735098281,103.78967985288237,2888,52faff07498ed69fc552aecc,Chai Jia Chai 蔡家菜馆,1.5339711373335394,103.79143223868626,430,4bf58dd8d48988d145941735,Chinese Restaurant
PERTANIAN,GELANG PATAH,JOHOR,1.545835538452416,103.62128006955956,4992,4e903e9702d5ee38b6b103e9,Restaurant ChanJi,1.5513697728018148,103.62491303200001,736,4bf58dd8d48988d145941735,Chinese Restaurant
JOHOR JAYA BARAT,PASIR GUDANG,JOHOR,1.5444554117157046,103.79791075468628,3694,4ce384ff1594236aead1f749,Restoran Feng Sheng 丰盛苦瓜汤餐馆,1.5426521807225961,103.79476111446213,403,4bf58dd8d48988d145941735,Chinese Restaurant
JOHOR JAYA BARAT,PASIR GUDANG,JOHOR,1.5444554117157046,103.79791075468628,3694,4d8f0c43d00a6ea8b9e4c64f,Solid Cafeteria 祖傳粿條仔,1.5426470188045296,103.79318589978323,562,4bf58dd8d48988d145941735,Chinese Restaurant
JOHOR JAYA BARAT,PASIR GUDANG,JOHOR,1.5444554117157046,103.79791075468628,3694,4da187a90f578cfa8a0e8e18,Macau Express 澳门顺记茶餐厅,1.5490042657059178,103.79631985969016,536,4bf58dd8d48988d145941735,Chinese Restaurant
DESA TEBRAU,TEBRAU,JOHOR,1.55602735161405,103.7935282482632,1806,4ccd120972106dcb6cb1a099,Soong Huat 顺发肉骨茶,1.5546514478944318,103.79534763723444,253,4bf58dd8d48988d145941735,Chinese Restaurant
DESA TEBRAU,TEBRAU,JOHOR,1.55602735161405,103.7935282482632,1806,4c540c0c479fc92838717792,Restoran Jing Seng 金城小食馆,1.563526612279883,103.79504276557104,851,4bf58dd8d48988d145941735,Chinese Restaurant
DESA TEBRAU,TEBRAU,JOHOR,1.55602735161405,103.7935282482632,1806,51922ec9498ecf8621267048,3327砂煲饭,1.5540019721686713,103.79096522938204,363,4bf58dd8d48988d145941735,Chinese Restaurant
DESA TEBRAU,TEBRAU,JOHOR,1.55602735161405,103.7935282482632,1806,4d7c4d5886cfa14315a3c7a0,Poh Kee Restaurant 葆记云吞面,1.5541027557649434,103.79608734287308,356,4bf58dd8d48988d145941735,Chinese Restaurant
PELANGI GAYA,TEBRAU,JOHOR,1.5741487940666954,103.79991755098341,2521,4d2c7be56e27a14309a34124,Thian Ching Food Court 天晴饮食宫,1.5689629615468514,103.80022014223628,578,4bf58dd8d48988d145941735,Chinese Restaurant
PELANGI GAYA,TEBRAU,JOHOR,1.5741487940666954,103.79991755098341,2521,4c42ecc7cc410f478b77ad61,Evergreen 綠園,1.5791793118020645,103.79886536264222,572,4bf58dd8d48988d145941735,Chinese Restaurant
PUTERI WANGSA 1,TEBRAU,JOHOR,1.5929306441000377,103.79735367018006,3103,4d38ded7acf1b60c65538518,恩记面家,1.5879417051293372,103.8044108419417,961,4bf58dd8d48988d145941735,Chinese Restaurant
SETIA ENAU,TEBRAU,JOHOR,1.5803717054884054,103.75740078260478,3168,4d7c3ae9ea35236a39ca5523,Restaurant Dasixi 大四喜香港点心,1.5737518295326742,103.75642091964457,744,4bf58dd8d48988d1f5931735,Dim Sum Restaurant
JAYA MAS,GELANG PATAH,JOHOR,1.4953810260000309,103.65325757930006,2451,4d3b87f305b8721e35fd8337,Restoran Chaw Yuan 潮苑点心餐厅,1.498259238696557,103.65627229486064,463,4bf58dd8d48988d1f5931735,Dim Sum Restaurant
FLAT PERKASA 'A' TUTA,GELANG PATAH,JOHOR,1.5113398877727653,103.65144233422735,3421,4d4b615ab496b60c99b5c400,佳發點心專賣店,1.5198909999999999,103.651973,953,4bf58dd8d48988d1f5931735,Dim Sum Restaurant
TAMAN PUTRI,KULAI,JOHOR,1.6596886792500312,103.58370396621879,2295,4d608255e4fe54817149819e,雲來點心樓,1.65549849595082,103.58817216521516,681,4bf58dd8d48988d145941735,Chinese Restaurant
NAKHODA TUTA,GELANG PATAH,JOHOR,1.5169394391064122,103.67070488372349,4601,53cdee49498ec30558c008d2,思源香港点心 Say Yes Hong Kong Dim Sum,1.5154451534247233,103.66838895165426,306,4bf58dd8d48988d1f5931735,Dim Sum Restaurant
PUCUNG PERLING,PULAI,JOHOR,1.4941176661951556,103.68407503319513,1730,4d38f1a4bb0d721e190d59e3,Restoran Tasixi 大四喜香港点心茶楼,1.4937377912956735,103.67938979337515,523,4bf58dd8d48988d1f5931735,Dim Sum Restaurant
BUKIT INDAH,PULAI,JOHOR,1.4840931096712695,103.64868473746584,5483,4dfa9bdfc65b729732b1d481,Restoran Wen Loy 古来云来包点,1.4790587732976548,103.6493005851428,564,4bf58dd8d48988d1f5931735,Dim Sum Restaurant
BUKIT INDAH,PULAI,JOHOR,1.4840931096712695,103.64868473746584,5483,4df558affa76abc3d87352ff,同心圆港式点心,1.4767721048504088,103.6503550767606,835,4bf58dd8d48988d1f5931735,Dim Sum Restaurant
TAMAN SRI SETIA,JOHOR BAHRU,JOHOR,1.4727733852424467,103.77005958366672,1015,501d04b4e4b082507ffbc3c7,Kencana Dewi Cafe,1.4727367174442074,103.7625294691674,837,4bf58dd8d48988d1f5931735,Dim Sum Restaurant
SENTOSA,JOHOR BAHRU,JOHOR,1.4942420712222575,103.77542012194452,4886,5ce77b10f2554e002c4ff6d2,Din by Din Tai Fung 鼎泰豐,1.501128,103.77705999999999,787,52af3b813cf9994f4e043c04,Taiwanese Restaurant
LUMBA KUDA,JOHOR BAHRU,JOHOR,1.4669703370697988,103.76644004379074,3069,585f81ff727ba373f2fc834e,Din Tai Fung 鼎泰丰,1.4619406181944048,103.76346350607237,650,52af3b813cf9994f4e043c04,Taiwanese Restaurant
MOUNT AUSTIN,TEBRAU,JOHOR,1.5556473972237104,103.77901471350006,2477,55d5c127498e930ee75596f0,锅妈台式火锅,1.563015019901839,103.77826265482409,824,52af3b813cf9994f4e043c04,Taiwanese Restaurant
LADANG TEBRAU,TEBRAU,JOHOR,1.5573830937681503,103.74189112507251,1063,59b7c3d4a6fe4d32cde46318,周星星美食,1.563059,103.73504,990,52af3add3cf9994f4e043bf5,Hong Kong Restaurant
TAMAN ABAD,JOHOR BAHRU,JOHOR,1.4867153413200336,103.76014665800007,2175,4b8de91cf964a5200c1333e3,Meisan Szechuan Restaurant 眉山菜馆,1.4882367629663555,103.7577269985333,318,52af3b773cf9994f4e043c03,Szechuan Restaurant
TAMAN ABAD,JOHOR BAHRU,JOHOR,1.4867153413200336,103.76014665800007,2175,55ed833a498e5acd566adb2e,中華風味湘菜館 Thiong Hua Restaurant,1.4840590365604582,103.76750974803824,871,52af3afc3cf9994f4e043bf8,Hunan Restaurant
SENAI BARU,KULAI,JOHOR,1.6207717716860737,103.66319458737215,3917,52e87d15498e483320a466c8,Restoran Swee Kee 瑞记海南鸡饭,1.6149350250977481,103.6588717462971,808,52af3abe3cf9994f4e043bf2,Hainan Restaurant
GELANG PATAH UTARA,GELANG PATAH,JOHOR,1.4631827298936482,103.58356237682982,5381,55801990498e0405d26c8a9b,福生家乡小厨,1.4585172340597656,103.58451337937271,530,52af3a7c3cf9994f4e043bed,Cantonese Restaurant
LIMA KEDAI,GELANG PATAH,JOHOR,1.5104757022833668,103.62981039194172,5021,57cd618e498e7945cb40e10f,Restaurant Yong Tai Xing 永泰兴美食坊,1.514597017795099,103.63180439359957,509,52af3a7c3cf9994f4e043bed,Cantonese Restaurant
RAWA PERLING,PULAI,JOHOR,1.4766828797206195,103.6724055534412,2507,568a081a498e2cb120c99714,Perfect Family Food Centre,1.4829869719946067,103.6660784012917,994,52af3a7c3cf9994f4e043bed,Cantonese Restaurant
PERTANIAN,GELANG PATAH,JOHOR,1.545835538452416,103.62128006955956,4992,53db6cca498ef9ec1874b846,曾记冷气海鲜酒楼Restoran Chan Ji,1.5513966876597496,103.62476042405052,730,52af3a7c3cf9994f4e043bed,Cantonese Restaurant
KEMPAS,PULAI,JOHOR,1.5382063646316173,103.70282501552636,2843,54819f6a498e314a74c59de5,Ampang Yong Tou Fu 甘拔士 安邦酿豆腐,1.5450919884883882,103.7040781164597,779,52af3ac83cf9994f4e043bf3,Hakka Restaurant
LIMA KEDAI,GELANG PATAH,JOHOR,1.5104757022833668,103.62981039194172,5021,551e3a55498e957d8365580f,YamCha DimSum Restaurant,1.5088835954666138,103.63748168945312,871,52af3a903cf9994f4e043bee,Chinese Breakfast Place
NUSA INDAH,PULAI,JOHOR,1.4760826230000343,103.65134189461668,2585,53fc14e8498e0e417ff22c6c,Chef Prata and Noodles House,1.4695626347131034,103.64694129776657,875,52af3a903cf9994f4e043bee,Chinese Breakfast Place
RAWA PERLING,PULAI,JOHOR,1.4766828797206195,103.6724055534412,2507,53eb604d498e34b4975ff68a,BBQ Box 串燒工坊,1.481823,103.665894,923,52af3a9f3cf9994f4e043bef,Dongbei Restaurant
TAMAN MOLEK,PASIR GUDANG,JOHOR,1.5305189735098281,103.78967985288237,2888,5389b571498ee7f0fb2309e2,师傅粿条仔,1.5300799628231696,103.79368008778543,447,52af3a673cf9994f4e043beb,Chinese Aristocrat Restaurant
